Field name,Reservoir unit,Country,Region,Basin name,Tectonic regime,Latitude,Longitude,Operator company,Onshore/Offshore,Hydrocarbon type,Reservoir status,Structural setting,Depth,Reservoir period,Lithology,Thickness (gross average ft),Thickness (net pay average ft),Porosity,Permeability
ZHIRNOV,MELEKESKIAN,RUSSIA,FORMER SOVIET UNION,VOLGA-URAL,COMPRESSION/EVAPORITE,51.0,44.8042,NIZHNEVOLZHSKNET,ONSHORE,OIL,DECLINING PRODUCTION,FORELAND,1870,CARBONIFEROUS,SANDSTONE,262.0,33.0,24.0,30.0
LAGOA PARDA,LAGOA PARDA (URUCUTUCA),BRAZIL,LATIN AMERICA,ESPIRITO SANTO,EXTENSION,-19.6017,-39.8332,PETROBRAS,ONSHORE,OIL,NEARLY DEPLETED,PASSIVE MARGIN,4843,PALEOGENE,SANDSTONE,2133.0,72.0,23.0,350.0
ABQAIQ,ARAB D,SAUDI ARABIA,MIDDLE EAST,THE GULF,COMPRESSION/EVAPORITE,26.08,49.81,SAUDI ARAMCO,ONSHORE,OIL,REJUVENATING,FORELAND,6050,JURASSIC,LIMESTONE,250.0,184.0,21.0,410.0
MURCHISON,BRENT,UK /NORWAY,EUROPE,NORTH SEA NORTHERN,EXTENSION,61.3833,1.75,CNR,OFFSHORE,OIL,NEARLY DEPLETED,RIFT,8988,JURASSIC,SANDSTONE,425.0,300.0,22.0,750.0
WEST PEMBINA,NISKU (PEMBINA L POOL),CANADA,NORTH AMERICA,WESTERN CANADA,COMPRESSION,53.2287,-115.8008,NUMEROUS,ONSHORE,OIL,UNKNOWN,FORELAND,9306,DEVONIAN,DOLOMITE,233.0,167.0,11.8,1407.0
UCHKYR,XV-1,UZBEKISTAN,FORMER SOVIET UNION,AMU DARYA,INVERSION/COMPRESSION/EXTENSION/EVAPORITE,40.1494,62.9906,SREDAZGAZPROM,ONSHORE,GAS,DECLINING PRODUCTION,INVERSION/RIFT,5443,JURASSIC,DOLOMITE,82.0,59.0,16.0,61.0
WESTHOPE SOUTH,CHARLES,USA,NORTH AMERICA,WILLISTON,COMPRESSION,48.8521,-101.013,AMERADA HESS,ONSHORE,OIL,MATURE PRODUCTION,INTRACRATONIC,3275,CARBONIFEROUS,DOLOMITIC LIMESTONE,43.0,15.5,10.0,2.6
MCALLEN RANCH,LOWER VICKSBURG,USA,NORTH AMERICA,GULF OF MEXICO NORTHERN ONSHORE,GRAVITY/EXTENSION/SHALE/SYNSEDIMENTATION,26.6226,-98.3153,SHELL,ONSHORE,GAS,MATURE PRODUCTION,DELTA/PASSIVE MARGIN,9400,PALEOGENE,SANDSTONE,300.0,140.0,16.0,0.6
ELLIS RANCH,CLEVELAND,USA,NORTH AMERICA,ANADARKO,COMPRESSION/EROSION,36.2724,-100.7161,NUMEROUS,ONSHORE,GAS,DECLINING PRODUCTION,FORELAND,6500,CARBONIFEROUS,SHALY SANDSTONE,150.0,26.0,14.0,0.4
STRACHAN,LEDUC,CANADA,NORTH AMERICA,WESTERN CANADA,COMPRESSION,52.45,-115.4286,BANF AND AQUITAINE,ONSHORE,GAS,NEARLY DEPLETED,FORELAND,12068,DEVONIAN,DOLOMITE,900.0,535.0,7.8,11.0
MENE GRANDE,ISNOTU,VENEZUELA,LATIN AMERICA,MARACAIBO,COMPRESSION/EROSION,9.8228,-70.9198,REPSOL YPF,ONSHORE,OIL,REJUVENATING,FORELAND,1104,NEOGENE,THINLY-BEDDED SANDSTONE,1400.0,100.0,30.0,1000.0
BADR EL DIN-2,BAHARIYA,,,,EXTENSION,,,BAPETCO,ONSHORE,GAS-CONDENSATE,DECLINING PRODUCTION,RIFT,7546,CRETACEOUS,SANDSTONE,361.0,148.0,20.0,225.0
BRIDGER LAKE,DAKOTA SANDSTONE (LOWER MEMBER),,,,COMPRESSION/EROSION,,,BTA OIL PRODUCERS,ONSHORE,OIL,NEARLY DEPLETED,FORELAND,15460,CRETACEOUS,SANDSTONE,270.0,35.0,12.8,79.0
JUDY CREEK,SWAN HILLS (JUDY CREEK A POOL),CANADA,NORTH AMERICA,WESTERN CANADA,COMPRESSION,54.4995,-115.4904,IMPERIAL OIL RESOURCES,ONSHORE,OIL,MATURE PRODUCTION,FORELAND,8540,DEVONIAN,LIMESTONE,230.0,60.0,9.0,45.0
ANGUS,ANGUS SAND,UK,EUROPE,NORTH SEA CENTRAL,EXTENSION/EROSION,56.1648,3.0593,AMERADA HESS,OFFSHORE,OIL,DECLINING PRODUCTION,RIFT,10130,JURASSIC,SANDSTONE,100.0,60.0,18.0,3000.0
SCOTT,SGIATH-PIPER,,,,EXTENSION/EVAPORITE,,,NEXEN,OFFSHORE,OIL,DECLINING PRODUCTION,RIFT,9940,JURASSIC,SANDSTONE,360.0,290.0,16.0,100.0
HEERA,BASSEIN (ZONE B),INDIA,,,EXTENSION,18.172,72.313,ONGC,OFFSHORE,OIL,DECLINING PRODUCTION,PASSIVE MARGIN,4542,PALEOGENE,LIMESTONE,230.0,82.0,12.0,0.8
HUGOTON-PANHANDLE,CHASE (HUGOTON),USA,NORTH AMERICA,ANADARKO,COMPRESSION/EROSION,37.0386,-101.0039,NUMEROUS,ONSHORE,GAS,DECLINING PRODUCTION,FORELAND,1700,PERMIAN,DOLOMITE,240.0,45.0,14.0,5.0
CUSIANA,MIRADOR,COLOMBIA,LATIN AMERICA,LLANOS,COMPRESSION/SHALE,5.0299,-72.6719,BP AND OTHERS,ONSHORE,OIL,DECLINING PRODUCTION,THRUST/SUB-THRUST/FORELAND,13000,PALEOGENE,SANDSTONE,400.0,200.0,9.0,100.0
CLYDE,FULMAR,UK,EUROPE,NORTH SEA CENTRAL,GRAVITY/EVAPORITE/EXTENSION,56.45,2.2833,TALISMAN,OFFSHORE,OIL,NEARLY DEPLETED,SALT/RIFT,11787,JURASSIC,THINLY-BEDDED SANDSTONE,650.0,390.0,20.0,350.0
BONGKOT,MALAY II,THAILAND,FAR EAST,MALAY,STRIKE-SLIP/INVERSION/COMPRESSION/EXTENSION,8.0876,102.2849,PTTEP,OFFSHORE,GAS-CONDENSATE,PLATEAU PRODUCTION,WRENCH/INVERSION/BACKARC,3020,NEOGENE,SANDSTONE,3400.0,120.0,22.0,160.0
GIDGEALPA,HUTTON,AUSTRALIA,,,INVERSION/COMPRESSION/EXTENSION,-28.0,140.0,SANTOS,ONSHORE,OIL,PLATEAU PRODUCTION,INTRACRATONIC,5392,JURASSIC,SANDSTONE,600.0,50.0,18.0,1000.0
ALIBEKMOLA,KT II,KAZAKHSTAN,FORMER SOVIET UNION,CASPIAN NORTH,COMPRESSION/EVAPORITE,48.474,57.6667,KAZAKHOIL AKTOBE,ONSHORE,OIL,DEVELOPING,SUB-SALT/FORELAND,9580,CARBONIFEROUS,LIMESTONE,607.0,108.0,10.0,20.0
VENTURE,MIC MAC-MISSISAUGA,CANADA,NORTH AMERICA,SCOTIAN,GRAVITY/SHALE/EXTENSION,44.0377,-59.5735,SABLE OFFSHORE ENERGY,OFFSHORE,GAS,DEVELOPING,PASSIVE MARGIN,14231,JURASSIC-CRETACEOUS,SANDSTONE,5249.0,500.0,14.0,30.0
BILLINGS NOSE,MISSION CANYON (BIG STICK FIELD),USA,NORTH AMERICA,WILLISTON,EXTENSION,47.1,-103.32,NUMEROUS,ONSHORE,OIL,MATURE PRODUCTION,INTRACRATONIC,9450,CARBONIFEROUS,DOLOMITE,100.0,18.0,17.0,20.0
DONGFANG 1-1,YINGGEHAI,CHINA,FAR EAST,YINGGEHAI,TRANSTENSION/EXTENSION/SHALE/LINKED,18.6146,107.9364,CNOOC,OFFSHORE,GAS,DEVELOPING,WRENCH/RIFT,3717,NEOGENE,SANDSTONE,660.0,308.0,25.0,88.3
KEMNITZ,HUECO,USA,NORTH AMERICA,PERMIAN,COMPRESSION,32.8909,-103.6007,TENNECO,ONSHORE,OIL,NEARLY DEPLETED,FORELAND,10500,PERMIAN,LIMESTONE,120.0,60.0,9.0,9.0
VACUUM,SAN ANDRES,USA,NORTH AMERICA,PERMIAN,COMPRESSION,32.7919,-103.5855,EXXONMOBIL /CONOCOPHILLIPS /CHEVRON,ONSHORE,OIL,DECLINING PRODUCTION,FORELAND,4250,PERMIAN,DOLOMITE,370.0,150.0,12.0,17.0
ZAKUM,THAMAMA ZONE II,,,,GRAVITY/EVAPORITE/COMPRESSION,,,ADMA /ZADCO,OFFSHORE,OIL,PLATEAU PRODUCTION,SALT/FORELAND,6940,CRETACEOUS,LIMESTONE,145.0,140.0,25.0,30.0
PEMBINA,CARDIUM (PEMBINA RIVER),CANADA,NORTH AMERICA,WESTERN CANADA,COMPRESSION,53.1361,-115.1188,NUMEROUS,ONSHORE,OIL,MATURE PRODUCTION,FORELAND,4000,CRETACEOUS,SANDSTONE,50.0,19.3,13.9,24.0
RAMAN,MARDIN-RAMAN,TURKEY,MIDDLE EAST,TAURUS/ZAGROS,COMPRESSION/EVAPORITE,37.7642,41.3083,TPAO,ONSHORE,OIL,PLATEAU PRODUCTION,THRUST,3691,CRETACEOUS,LIMESTONE,175.0,115.0,14.0,10.0
YAERXIA,XIAGOU,CHINA,FAR EAST,JIUQUAN,COMPRESSION/EROSION,39.8015,97.4667,PETROCHINA,ONSHORE,OIL,DECLINING PRODUCTION,THRUST,11040,CRETACEOUS,SANDSTONE,620.0,115.0,8.5,2.45
ROMASHKINO,PASHIY (D-1 POOL),RUSSIA,FORMER SOVIET UNION,VOLGA-URAL,COMPRESSION/EROSION,55.3433,52.8447,TATNEFT,ONSHORE,OIL,MATURE PRODUCTION,FORELAND,5463,DEVONIAN,SANDSTONE,115.0,29.0,19.0,375.0
GASIKULE,UPPER GANCHAIGOU-LOWER YOUSHAS,,,,COMPRESSION,,,PETROCHINA,ONSHORE,OIL,PLATEAU PRODUCTION,THRUST,4199,NEOGENE,SANDSTONE,3281.0,81.0,19.0,102.0
VILLEPERDUE,DALLE NACREE,FRANCE,EUROPE,PARIS,EXTENSION,48.8167,3.6,COPAREX /TRITON,ONSHORE,OIL,MATURE PRODUCTION,INTRACRATONIC,5990,JURASSIC,LIMESTONE,75.0,60.0,14.0,10.0
UZEN,UNITS XIII-XVIII,,,,INVERSION/COMPRESSION/EXTENSION,,,MANGYSTAUMUNAIGAZ,ONSHORE,OIL,MATURE PRODUCTION,INVERSION/RIFT,3440,JURASSIC,SANDSTONE,920.0,436.0,21.0,235.0
CANDEIAS,GOMO (CANDEIAS),BRAZIL,LATIN AMERICA,RECONCAVO,EXTENSION,-12.6634,-38.5668,PETROBRAS,ONSHORE,OIL,MATURE PRODUCTION,RIFT,2116,CRETACEOUS,CONGLOMERATE,1476.0,180.0,15.0,30.0
ULA,ULA,,,,INVERSION/COMPRESSION/EXTENSION/EVAPORITE,,,BP,OFFSHORE,OIL,MATURE PRODUCTION,SALT/INVERSION/RIFT,10744,JURASSIC,SANDSTONE,410.0,377.0,16.5,300.0
NIPISI,WATT MOUNTAIN (GILWOOD A POOL),CANADA,NORTH AMERICA,WESTERN CANADA,COMPRESSION,55.8199,-115.1317,BP,ONSHORE,OIL,MATURE PRODUCTION,FORELAND,5500,DEVONIAN,SANDSTONE,100.0,14.0,13.5,250.0
MINAS,BEKASAP,INDONESIA,FAR EAST,SUMATRA CENTRAL,INVERSION/STRIKE-SLIP/TRANSPRESSION/EXTENSION/BASEMENT-I,0.7675,101.4334,CALTEX PACIFIC INDONESIA,ONSHORE,OIL,MATURE PRODUCTION,INVERSION/BACKARC,1960,NEOGENE,SANDSTONE,600.0,200.0,26.0,500.0
NORTH WARD-ESTES,YATES,USA,,,COMPRESSION,31.5777,-102.9918,WHITING OIL and GAS,ONSHORE,OIL,REJUVENATING,FORELAND,2600,PERMIAN,SILTSTONE,300.0,100.0,11.0,16.0
PENWELL,SAN ANDRES,USA,NORTH AMERICA,PERMIAN,COMPRESSION,31.7333,-102.5625,CHEVRON /CONOCOPHILLIPS /TOTAL,ONSHORE,OIL,DECLINING PRODUCTION,FORELAND,3250,PERMIAN,DOLOMITE,400.0,118.0,11.0,3.0
TAGLU,REINDEER,CANADA,NORTH AMERICA,BEAUFORT-MACKENZIE,INVERSION/COMPRESSION/EXTENSION/EROSION,69.3716,-134.8935,IMPERIAL OIL RESOURCES,ONSHORE,GAS,UNDEVELOPED,DELTA/PASSIVE MARGIN,7382,PALEOGENE,SANDSTONE,1970.0,427.0,17.0,150.0
LLOYDMINSTER AREA,WASECA,CANADA,NORTH AMERICA,WESTERN CANADA,COMPRESSION/EROSION,53.2642,-110.0276,HUSKY ENERGY,ONSHORE,OIL,PLATEAU PRODUCTION,FORELAND,1900,CRETACEOUS,SANDSTONE,90.0,50.0,34.0,2000.0
PORT ACRES,LOWER HACKBERRY (FRIO),USA,NORTH AMERICA,GULF OF MEXICO NORTHERN ONSHORE,GRAVITY/EXTENSION/EVAPORITE/SYNSEDIMENTATION,29.88,-94.0,PAN AMERICAN PETROLEUM,ONSHORE,GAS-CONDENSATE,ABANDONED,DELTA/SALT/PASSIVE MARGIN,10376,PALEOGENE,SHALY SANDSTONE,400.0,26.0,29.0,275.0
ELK BASIN,MADISON,USA,NORTH AMERICA,BIG HORN,COMPRESSION/EXTENSION/LINKED,44.9789,-108.855,NUMEROUS,ONSHORE,OIL,MATURE PRODUCTION,THRUST/FORELAND,4350,CARBONIFEROUS,DOLOMITE,780.0,205.0,12.0,7.0
JAY,SMACKOVER,USA,NORTH AMERICA,GULF OF MEXICO NORTHERN ONSHORE,GRAVITY/EXTENSION/EVAPORITE/SYNSEDIMENTATION,30.9557,-87.1783,EXXONMOBIL,ONSHORE,OIL,NEARLY DEPLETED,SUB-SALT/PASSIVE MARGIN,15295,JURASSIC,DOLOMITE,350.0,100.0,14.0,35.0
BRAGE,STATFJORD,NORWAY,EUROPE,NORTH SEA NORTHERN,EXTENSION,60.5868,3.0943,STATOILHYDRO,OFFSHORE,OIL,DECLINING PRODUCTION,RIFT,7096,TRIASSIC-JURASSIC,SANDSTONE,312.0,82.0,24.0,1500.0
WEMBLEY,HALFWAY,CANADA,NORTH AMERICA,WESTERN CANADA,COMPRESSION,55.2197,-119.1749,BP AND OTHERS,ONSHORE,OIL,DECLINING PRODUCTION,FORELAND,6125,TRIASSIC,SANDSTONE,80.0,22.0,10.2,60.0
YIBAL,KHUFF,,,,COMPRESSION/EVAPORITE,,,PDO,ONSHORE,OIL,DECLINING PRODUCTION,SALT/FORELAND,9219,PERMIAN,DOLOMITE,670.0,250.0,15.0,5.0
PALM VALLEY,PACOOTA AND STAIRWAY,,,,COMPRESSION/EVAPORITE,,,MAGELLAN PETROLEUM,ONSHORE,GAS,DECLINING PRODUCTION,INTRACRATONIC,5656,ORDOVICIAN,SANDSTONE,2300.0,174.0,4.0,0.01
DEFA,WAHA-DEFA,LIBYA,AFRICA,SIRT,EXTENSION/INVERSION,28.0781,19.915,LNOC,ONSHORE,OIL,UNKNOWN,RIFT,5193,CRETACEOUS-PALEOGENE,LIMESTONE,860.0,210.0,20.0,20.0
ANETH,PARADOX (DESERT CREEK),USA,NORTH AMERICA,PARADOX,COMPRESSION/EXTENSION/EVAPORITE,37.3038,-109.2469,CHEVRON /EXXONMOBIL,ONSHORE,OIL,NEARLY DEPLETED,INTRACRATONIC,5470,CARBONIFEROUS,DOLOMITE,100.0,50.0,10.0,15.0
NUMBI,VERMELHA,ANGOLA,AFRICA,CONGO,GRAVITY/EXTENSION/EVAPORITE/SYNSEDIMENTATION,-5.3099,11.9154,CHEVRON,OFFSHORE,OIL,PLATEAU PRODUCTION,PASSIVE MARGIN,3065,CRETACEOUS,SANDSTONE,450.0,150.0,24.0,500.0
ERSKINE,HEATHER,UK,EUROPE,NORTH SEA CENTRAL,INVERSION/COMPRESSION/EXTENSION,57.0556,2.0694,CHEVRON,OFFSHORE,GAS-CONDENSATE,DECLINING PRODUCTION,RIFT,14900,JURASSIC,SANDSTONE,60.0,50.0,20.0,18.0
WUBAITI,HUANGLONG,,,,COMPRESSION,,,PETROCHINA,ONSHORE,GAS,DEVELOPING,THRUST,13780,CARBONIFEROUS,DOLOMITE,98.0,79.0,6.0,0.77
PATRICK DRAW,ALMOND,USA,NORTH AMERICA,GREATER GREEN RIVER,COMPRESSION/EROSION,41.6148,-108.5007,ANADARKO,ONSHORE,OIL,REJUVENATING,FORELAND,4300,CRETACEOUS,SANDSTONE,70.0,20.0,20.0,36.0
MURAVLENKOV,MEGION,RUSSIA,FORMER SOVIET UNION,SIBERIAN WESTERN,COMPRESSION,63.99,74.95,SIBNEFT (MURAVLENKOVSKNEFT),ONSHORE,OIL,DECLINING PRODUCTION,INTRACRATONIC,8399,CRETACEOUS,SANDSTONE,1476.0,102.0,18.5,45.0
SIRIKIT,LAN KRABU,THAILAND,FAR EAST,PHITSANULOK,STRIKE-SLIP/TRANSTENSION/BASEMENT-I,16.63,99.9,SHELL,ONSHORE,OIL,PLATEAU PRODUCTION,WRENCH,4623,NEOGENE,SANDSTONE,1772.0,262.0,20.0,50.0
WEST CHEYENNE,UPPER MORROW (PURYEAR),USA,NORTH AMERICA,ANADARKO,COMPRESSION/EROSION,35.585,-99.7432,APACHE /BURLINGTON,ONSHORE,GAS,MATURE PRODUCTION,FORELAND,14500,CARBONIFEROUS,CONGLOMERATE,46.0,23.0,13.0,0.4
XIAOJI,KONGDIAN-1,CHINA,FAR EAST,BOHAI,EXTENSION,38.17,117.09,PETROCHINA,ONSHORE,OIL,DECLINING PRODUCTION,RIFT,8750,PALEOGENE,SANDSTONE,1230.0,125.0,15.6,83.0
POKACHEV,VARTOV (BV6),RUSSIA,FORMER SOVIET UNION,SIBERIAN WESTERN,COMPRESSION,61.583,75.1833,SURGUTNEFTEGAS,ONSHORE,OIL,DECLINING PRODUCTION,INTRACRATONIC,7529,CRETACEOUS,SANDSTONE,52.0,19.0,20.0,170.0
PAMPO,MACAE (QUISSAMA),BRAZIL,LATIN AMERICA,CAMPOS,GRAVITY/EXTENSION/EVAPORITE,-22.788,-40.7674,PETROBRAS,OFFSHORE,OIL,DECLINING PRODUCTION,SALT/PASSIVE MARGIN,5781,CRETACEOUS,LIMESTONE,650.0,280.0,25.0,800.0
JINGBIAN,MAJIAGOU-5,CHINA,FAR EAST,ORDOS,COMPRESSION/EROSION,37.6667,108.8333,PETROCHINA,ONSHORE,GAS,DEVELOPING,FORELAND,9800,ORDOVICIAN,DOLOMITE,150.0,47.0,5.6,3.0
WYTCH FARM,SHERWOOD,UK,EUROPE,WESSEX,INVERSION/COMPRESSION/EXTENSION,50.6672,-2.0278,BP,ONSHORE-OFFSHORE,OIL,DECLINING PRODUCTION,RIFT/INVERSION,4954,TRIASSIC,SANDSTONE,525.0,150.0,18.0,100.0
BRANTON,COTTON VALLEY LIME,USA,NORTH AMERICA,GULF OF MEXICO NORTHERN ONSHORE,GRAVITY/EXTENSION/EVAPORITE,31.3593,-96.2189,MARATHON,ONSHORE,GAS,NEARLY DEPLETED,SALT/PASSIVE MARGIN,14810,JURASSIC,CHALKY LIMESTONE,375.0,200.0,25.0,5.0
INDEFATIGABLE,LEMAN SANDSTONE,UK,,,INVERSION/COMPRESSION/EXTENSION/EVAPORITE/GRAVITY,53.3932,2.5239,SHELL /PERENCO,OFFSHORE,GAS,NEARLY DEPLETED,SUB-SALT/INVERSION,7400,PERMIAN,SANDSTONE,200.0,197.0,15.0,30.0
MIDGARD,FANGST,NORWAY,EUROPE,MID-NORWAY SHELF,EXTENSION/EROSION,65.0789,7.4898,STATOILHYDRO,OFFSHORE,GAS,DEVELOPING,RIFT,6480,JURASSIC,SANDSTONE,459.0,380.0,27.5,5625.0
ELK-POCA,ORISKANY,USA,NORTH AMERICA,APPALACHIAN,COMPRESSION/EROSION,38.6216,-81.6611,NUMEROUS,ONSHORE,GAS,NEARLY DEPLETED,FORELAND,4850,DEVONIAN,SANDSTONE,35.0,11.0,8.0,27.5
RINCON,FRIO-VICKSBURG,USA,NORTH AMERICA,GULF OF MEXICO NORTHERN ONSHORE,GRAVITY/EXTENSION/SHALE/SYNSEDIMENTATION,26.5307,-98.5866,CONOCOPHILLIPS,ONSHORE,OIL,MATURE PRODUCTION,DELTA/PASSIVE MARGIN,3400,PALEOGENE,SANDSTONE,1000.0,150.0,26.0,80.0
LANWA,KALOL,INDIA,FAR EAST,CAMBAY,INVERSION/COMPRESSION/EXTENSION,23.568,72.137,ONGC,ONSHORE,OIL,DECLINING PRODUCTION,RIFT,2873,PALEOGENE,SANDSTONE,148.0,33.0,30.0,5000.0
JOFFRE,VIKING,CANADA,NORTH AMERICA,WESTERN CANADA,COMPRESSION,52.283,-113.5543,VIKOR RESOURCES,ONSHORE,OIL,NEARLY DEPLETED,FORELAND,4921,CRETACEOUS,SANDSTONE,115.0,10.0,13.2,190.0
MCARTHUR RIVER,HEMLOCK CONGLOMERATE,USA,NORTH AMERICA,COOK INLET,INVERSION/COMPRESSION/EXTENSION,60.8399,-151.6153,CHEVRON,OFFSHORE,OIL,NEARLY DEPLETED,INVERSION/FOREARC,8780,PALEOGENE,CONGLOMERATE,500.0,290.0,11.0,125.0
HIBERNIA,AVALON,CANADA,NORTH AMERICA,JEANNE D ARC,EXTENSION/EVAPORITE/EROSION/GRAVITY,46.7495,-48.7822,HIBERNIA MANAGEMENT DEVELOPMENT CO,OFFSHORE,OIL,DEVELOPING,RIFT/SALT,6627,CRETACEOUS,SANDSTONE,1180.0,115.0,20.0,220.0
ERSKINE,PENTLAND,UK,EUROPE,NORTH SEA CENTRAL,INVERSION/COMPRESSION/EXTENSION,57.0556,2.0694,CHEVRON,OFFSHORE,GAS-CONDENSATE,DECLINING PRODUCTION,RIFT,14700,JURASSIC,SANDSTONE,500.0,150.0,16.0,10.0
KULESHOV,A3,RUSSIA,FORMER SOVIET UNION,VOLGA-URAL,COMPRESSION/EVAPORITE,52.8381,51.2136,KUYBYSHEVNEFT,ONSHORE,OIL,NEARLY DEPLETED,FORELAND,5266,CARBONIFEROUS,SANDSTONE,70.0,46.0,20.0,177.0
SHATLYK,SHATLYK (SHATLYK EAST),TURKMENISTAN,FORMER SOVIET UNION,AMU DARYA,COMPRESSION/EVAPORITE,37.39,61.1,TURKMENGAS,ONSHORE,GAS,MATURE PRODUCTION,FORELAND,11000,CRETACEOUS,SANDSTONE,148.0,63.0,21.8,222.0
SLAUGHTER,SAN ANDRES,USA,NORTH AMERICA,PERMIAN,COMPRESSION,33.4701,-102.6771,NUMEROUS,ONSHORE,OIL,MATURE PRODUCTION,FORELAND,5100,PERMIAN,DOLOMITE,900.0,70.0,12.0,10.0
LLOYDMINSTER AREA,SPARKY,CANADA,NORTH AMERICA,WESTERN CANADA,COMPRESSION/EROSION,53.2642,-110.0276,HUSKY ENERGY,ONSHORE,OIL,PLATEAU PRODUCTION,FORELAND,1900,CRETACEOUS,SANDSTONE,58.0,33.0,30.0,2000.0
OROCUAL,SAN JUAN,,,,COMPRESSION/EXTENSION/LINKED,,,PDVSA,ONSHORE,OIL,DECLINING PRODUCTION,THRUST/PASSIVE MARGIN,12550,CRETACEOUS-PALEOGENE,SANDSTONE,1000.0,650.0,6.0,5.0
GLENBURN,MISSION CANYON (FROBISHER-ALIDA),,,,COMPRESSION,,,ANSCHUTZ AND OTHERS,ONSHORE,OIL,MATURE PRODUCTION,INTRACRATONIC,4840,CARBONIFEROUS,LIMESTONE,100.0,10.0,17.0,24.0
CARTHAGE,LOWER PETTET (SLIGO),USA,NORTH AMERICA,GULF OF MEXICO NORTHERN ONSHORE,GRAVITY/EXTENSION/EVAPORITE,32.1988,-94.2574,NUMEROUS,ONSHORE,GAS,REJUVENATING,PASSIVE MARGIN,5852,CRETACEOUS,LIMESTONE,250.0,15.0,18.0,35.0
WEST TEBUK,F2-F0,RUSSIA,,,COMPRESSION/EVAPORITE,63.6375,54.9269,KOMINEFT,ONSHORE,OIL,DECLINING PRODUCTION,INVERSION/FORELAND,3493,DEVONIAN,LIMESTONE,980.0,200.0,12.0,200.0
SUNRISE-TROUBADOUR,PLOVER,AUSTRALIA,FAR EAST,BONAPARTE,EXTENSION/TRANSTENSION,-9.5901,128.1538,WOODSIDE,OFFSHORE,GAS-CONDENSATE,UNDEVELOPED,WRENCH/PASSIVE MARGIN,6660,JURASSIC,SANDSTONE,591.0,279.0,14.0,28.0
NORTH ANDERSON RANCH,HUECO,USA,NORTH AMERICA,PERMIAN,COMPRESSION,32.9752,-103.7292,GULF OIL,ONSHORE,OIL,NEARLY DEPLETED,FORELAND,9600,PERMIAN,LIMESTONE,120.0,35.0,9.0,124.0
ELK BASIN,TENSLEEP,USA,NORTH AMERICA,BIG HORN,COMPRESSION/EXTENSION/LINKED,44.9789,-108.855,NUMEROUS,ONSHORE,OIL,ABANDONED,THRUST/FORELAND,4000,CARBONIFEROUS,SANDSTONE,250.0,110.0,17.0,150.0
KADI NORTH,KALOL,INDIA,FAR EAST,CAMBAY,INVERSION/COMPRESSION/EXTENSION,23.43,72.28,ONGC,ONSHORE,OIL,REJUVENATING,RIFT/INVERSION,3136,PALEOGENE,SANDSTONE,492.0,21.0,30.0,4000.0
HIBERNIA,HIBERNIA,CANADA,NORTH AMERICA,JEANNE D ARC,EXTENSION/EVAPORITE/EROSION/GRAVITY,46.7495,-48.7822,HIBERNIA MANAGEMENT DEVELOPMENT CO,OFFSHORE,OIL,PLATEAU PRODUCTION,RIFT/SALT,10890,CRETACEOUS,SANDSTONE,650.0,128.0,16.0,700.0
EL FURRIAL,MERECURE (NARICUAL-LOS JABILLOS),VENEZUELA,LATIN AMERICA,EASTERN VENEZUELA,COMPRESSION,9.6835,-63.4529,PDVSA,ONSHORE,OIL,PLATEAU PRODUCTION,THRUST,12750,PALEOGENE,SANDSTONE,1600.0,850.0,15.0,480.0
HARMATTAN-ELKTON,TURNER VALLEY (RUNDLE C POOL),,,,COMPRESSION/EROSION,,,BP AND OTHERS,ONSHORE,GAS-CONDENSATE,MATURE PRODUCTION,FORELAND,8750,CARBONIFEROUS,DOLOMITE,140.0,70.0,12.0,125.0
PENAL-BARRACKPORE,HERRERA,TRINIDAD AND TOBAGO,LATIN AMERICA,EASTERN VENEZUELA,STRIKE-SLIP/TRANSPRESSION/BASEMENT-I,10.1833,-61.4,PETROTRIN,ONSHORE,OIL,NEARLY DEPLETED,THRUST/SUB-THRUST/FORELAND,2100,NEOGENE,SANDSTONE,2000.0,1000.0,25.0,100.0
EVEREST,FORTIES,UK,EUROPE,NORTH SEA CENTRAL,EXTENSION/EVAPORITE/GRAVITY,57.75,1.81,BP,OFFSHORE,GAS-CONDENSATE,DECLINING PRODUCTION,RIFT,8008,PALEOGENE,SANDSTONE,85.0,50.0,22.0,27.0
TIA JUANA,LA ROSA-LAGUNILLAS (TIA JUANA ONSHORE AREA),,,,COMPRESSION/EROSION,,,PDVSA,ONSHORE-OFFSHORE,OIL,MATURE PRODUCTION,WRENCH/FORELAND,1400,NEOGENE,SANDSTONE,500.0,120.0,35.0,1200.0
VICTORY,LANSING-KANSAS CITY,USA,NORTH AMERICA,ANADARKO,COMPRESSION/EROSION,37.3971,-100.9544,BP,ONSHORE,OIL,MATURE PRODUCTION,FORELAND,4075,CARBONIFEROUS,LIMESTONE,150.0,10.0,22.0,85.0
TOMMELITEN GAMMA,TOR-EKOFISK,NORWAY,EUROPE,NORTH SEA CENTRAL,GRAVITY/EVAPORITE/EXTENSION,56.4844,2.9334,STATOILHYDRO,OFFSHORE,GAS-CONDENSATE,ABANDONED,SALT/INVERSION/RIFT,9629,CRETACEOUS-PALEOGENE,CHALK,640.0,550.0,20.0,0.8
SERANG,BALIKPAPAN (UPPER DELTAIC SEQUENCE),INDONESIA,FAR EAST,KUTAI,INVERSION/COMPRESSION/EXTENSION/SHALE,-0.1669999999999999,117.67,CHEVRON,OFFSHORE,OIL,MATURE PRODUCTION,BACKARC,5675,NEOGENE,SANDSTONE,500.0,180.0,28.0,1628.0
TOR,TOR-EKOFISK,NORWAY,EUROPE,NORTH SEA CENTRAL,GRAVITY/EVAPORITE/EXTENSION,56.6389,3.3355,CONOCOPHILLIPS,OFFSHORE,OIL,MATURE PRODUCTION,SALT/INVERSION/RIFT,9520,CRETACEOUS-PALEOGENE,CHALK,800.0,490.0,21.0,0.6
DZHIGALYBEG,RED SERIES,TURKMENISTAN,FORMER SOVIET UNION,CASPIAN SOUTH,COMPRESSION/EVAPORITE/EXTENSION/LINKED,39.47,52.73,DRAGON OIL,OFFSHORE,OIL,DEVELOPING,THRUST,10100,NEOGENE,SANDSTONE,8200.0,260.0,18.0,100.0
EMPIRE ABO,ABO,,,,COMPRESSION,,,BP,ONSHORE,OIL,NEARLY DEPLETED,FORELAND,5600,PERMIAN,DOLOMITE,300.0,151.0,10.0,50.0
KARACHAGANAK,UNNAMED,KAZAKHSTAN,FORMER SOVIET UNION,CASPIAN NORTH,COMPRESSION/EVAPORITE,51.3158,53.26,KARACHAGANAK INTEGRATED ORAGANIZATION,ONSHORE,GAS-CONDENSATE,REJUVENATING,SUB-SALT/FORELAND,11870,DEVONIAN-PERMIAN,LIMESTONE,6600.0,2600.0,10.0,8.0
NORTH ROBERTSON,CLEARFORK-GLORIETA,,,,COMPRESSION,,,TOTAL,ONSHORE,OIL,SECOND PLATEAU PRODUTION,FORELAND,5800,PERMIAN,DOLOMITE,1300.0,400.0,4.0,0.4
WHITNEY CANYON-CARTER CREEK,MISSION CANYON,USA,NORTH AMERICA,FOSSIL,COMPRESSION,41.5135,-110.9286,CHEVRON /BP,ONSHORE,GAS-CONDENSATE,DECLINING PRODUCTION,SUB-THRUST,13300,CARBONIFEROUS,DOLOMITE,750.0,261.0,7.0,1.0
TABER NORTH,UPPER MANNVILE (A POOL),,,,COMPRESSION/EROSION,,,CANADIAN SUPERIOR,ONSHORE,OIL,MATURE PRODUCTION,FORELAND,3050,CRETACEOUS,SANDSTONE,165.0,35.0,25.0,2000.0
PEEJAY,HALFWAY,CANADA,NORTH AMERICA,WESTERN CANADA,COMPRESSION/EROSION,56.8646,-120.4777,CANADIAN NATURAL RESOURCES,ONSHORE,OIL,NEARLY DEPLETED,FORELAND,3800,TRIASSIC,SANDSTONE,85.0,12.8,12.0,120.0
HENRY,DAKOTA SANDSTONE,USA,NORTH AMERICA,GREATER GREEN RIVER,COMPRESSION/EROSION,41.1334,-110.1768,CABOT OIL and GAS,ONSHORE,GAS-CONDENSATE,DECLINING PRODUCTION,FORELAND,13665,CRETACEOUS,SANDSTONE,350.0,19.0,14.0,43.4
BIBI HAKIMEH,ASMARI,IRAN,MIDDLE EAST,ZAGROS,COMPRESSION/EVAPORITE,30.0572,50.6384,NIOC,ONSHORE,OIL,MATURE PRODUCTION,FORELAND,3150,PALEOGENE-NEOGENE,DOLOMITIC LIMESTONE,1600.0,672.0,9.0,1.0
MITSUE,WATT MOUNTAIN (GILWOOD A),CANADA,NORTH AMERICA,WESTERN CANADA,COMPRESSION,55.1141,-114.4722,CHEVRON,ONSHORE,OIL,DECLINING PRODUCTION,FORELAND/PASSIVE MARGIN,5700,DEVONIAN,SANDSTONE,80.0,13.0,13.0,230.0
GASIKULE,LOWER GANCHAIGOU,CHINA,,,COMPRESSION,38.1,90.87,PETROCHINA,ONSHORE,OIL,PLATEAU PRODUCTION,THRUST,10427,PALEOGENE,SANDSTONE,804.0,93.0,14.0,48.0
NASSER,ZELTEN,LIBYA,AFRICA,SIRT,EXTENSION/INVERSION,28.9056,19.7983,LNOC,ONSHORE,OIL,MATURE PRODUCTION,RIFT,5430,PALEOGENE,LIMESTONE,300.0,120.0,22.0,1500.0
NORTH SABINE LAKE,LOWER HACKBERRY (FRIO),USA,NORTH AMERICA,GULF OF MEXICO NORTHERN ONSHORE,GRAVITY/EXTENSION/EVAPORITE/SYNSEDIMENTATION,29.9587,-93.7991,HILLCORP ENERGY,ONSHORE,GAS-CONDENSATE,MATURE PRODUCTION,DELTA/SALT/PASSIVE MARGIN,10940,PALEOGENE,SHALY SANDSTONE,265.0,130.0,26.0,425.0
BARRACOUTA,LATROBE (M1 UNIT),AUSTRALIA,FAR EAST,GIPPSLAND,INVERSION/COMPRESSION/EXTENSION/EROSION,-38.2786,147.7094,EXXONMOBIL /BHP BILLITON,OFFSHORE,OIL,TEMPORARILY SHUT-IN,INVERSION/RIFT,4360,PALEOGENE,SANDSTONE,98.0,49.0,27.0,5000.0
RAMBA,BATURAJA,INDONESIA,FAR EAST,SUMATRA SOUTH,INVERSION/STRIKE-SLIP/TRANSPRESSION/EXTENSION/BASEMENT-I,-2.6544,104.1461,ASAMERA,ONSHORE,OIL,DECLINING PRODUCTION,INVERSION/BACKARC,2650,NEOGENE,LIMESTONE,164.0,54.0,17.0,2000.0
WENMINGZHAI,SHAHEJIE,CHINA,FAR EAST,BOHAI,EXTENSION,35.77,115.2,SINOPEC,ONSHORE,OIL,MATURE PRODUCTION,RIFT,4462,PALEOGENE,SANDSTONE,6562.0,153.0,25.0,420.0
KHAFJI,RATAWI LIMESTONE,NEUTRAL ZONE,MIDDLE EAST,THE GULF,INVERSION/COMPRESSION/EVAPORITE/EROSION,28.5333,48.9167,ARABIAN OIL CO,OFFSHORE,OIL,UNKNOWN,FORELAND/SALT,6825,CRETACEOUS,LIMESTONE,550.0,173.0,22.0,17.0
BADR EL DIN-3,KHARITA,EGYPT,AFRICA,ABU GHARADIG,EXTENSION,29.841,27.915,BAPETCO,ONSHORE,GAS-CONDENSATE,DECLINING PRODUCTION,RIFT,11200,CRETACEOUS,SANDSTONE,1378.0,446.0,14.0,340.0
ANASAZI,PARADOX (DESERT CREEK),USA,NORTH AMERICA,PARADOX,COMPRESSION/EXTENSION/EVAPORITE,37.0789,-109.2333,RIM ENERGY,ONSHORE,OIL,DECLINING PRODUCTION,INTRACRATONIC,5575,CARBONIFEROUS,DOLOMITE,80.0,46.0,14.0,15.0
BINDLEY,WARSAW,USA,NORTH AMERICA,ANADARKO,COMPRESSION/EROSION,38.1838,-99.9569,CONOCOPHILLIPS AND OTHERS,ONSHORE,OIL,NEARLY DEPLETED,FORELAND,4580,CARBONIFEROUS,DOLOMITE,50.0,12.0,15.0,35.0
KOROLEV,NUMEROUS,KAZAKHSTAN,FORMER SOVIET UNION,CASPIAN NORTH,COMPRESSION/EVAPORITE,46.2175,53.5381,TENGIZCHEVROIL,ONSHORE,OIL,DEVELOPING,SUB-SALT/FORELAND,12746,CARBONIFEROUS-PERMIAN,LIMESTONE,3500.0,1500.0,6.0,6.0
SUFFIELD,UPPER MANNVILLE (J POOL),CANADA,NORTH AMERICA,WESTERN CANADA,COMPRESSION/EROSION,50.2851,-111.1427,ALBERTA ENERGY COMPANY /WESTCOAST PETROLEUM,ONSHORE,OIL,DECLINING PRODUCTION,FORELAND,2950,CRETACEOUS,SANDSTONE,72.5,36.5,27.0,1000.0
LAKE CREEK,WILCOX (G SAND),USA,NORTH AMERICA,GULF OF MEXICO NORTHERN ONSHORE,GRAVITY/EXTENSION/SHALE/SYNSEDIMENTATION,30.2546,-95.5906,EXXONMOBIL,ONSHORE,GAS,DECLINING PRODUCTION,DELTA/SALT/PASSIVE MARGIN,11487,PALEOGENE,SANDSTONE,290.0,70.0,11.0,0.44
SHANSHAN,SANJIANFANG,CHINA,FAR EAST,TURPAN (TURFAN),COMPRESSION,43.05,90.35,PETROCHINA,ONSHORE,OIL,DECLINING PRODUCTION,FORELAND,9186,JURASSIC,SANDSTONE,951.0,67.0,12.0,7.9
HUTTON NORTHWEST,BRENT,UK,EUROPE,NORTH SEA NORTHERN,EXTENSION/EROSION,61.1,1.3167,BP,OFFSHORE,OIL,ABANDONED,RIFT,10525,JURASSIC,SANDSTONE,410.0,180.0,18.0,100.0
WANGCHANG,QIANJIANG,CHINA,FAR EAST,JIANGHAN,EXTENSION/EVAPORITE/GRAVITY,30.41,112.81,SINOPEC,ONSHORE,OIL,NEARLY DEPLETED,RIFT,2421,PALEOGENE,SANDSTONE,5900.0,28.0,18.3,386.0
IAGIFU-HEDINIA,TORO,PAPUA NEW GUINEA,FAR EAST,PAPUAN FTB,COMPRESSION,-6.4347,143.2116,CHEVRON,ONSHORE,OIL,DECLINING PRODUCTION,THRUST,5084,CRETACEOUS,SANDSTONE,328.0,300.0,13.0,600.0
VALHALLA,KASKAPAU (DOE CREEK I POOL),CANADA,NORTH AMERICA,WESTERN CANADA,COMPRESSION,55.4714,-119.3361,PETRO-CANADA AND OTHERS,ONSHORE,OIL,DECLINING PRODUCTION,FORELAND,2460,CRETACEOUS,SANDSTONE,11.0,12.0,23.0,210.0
CLIPPER,LEMAN SANDSTONE,UK,EUROPE,NORTH SEA SOUTHERN,INVERSION/COMPRESSION/EXTENSION/EVAPORITE/GRAVITY,53.4682,1.7338,SHELL,OFFSHORE,GAS,DECLINING PRODUCTION,SUB-SALT/INVERSION,7420,PERMIAN,SANDSTONE,715.0,580.0,11.0,0.5
SAIH RAWL,SHUAIBA,OMAN,MIDDLE EAST,GHABA SALT,COMPRESSION/EROSION/GRAVITY/EVAPORITE/EXTENSION,21.318,56.7018,PDO,ONSHORE,OIL,PLATEAU PRODUCTION,SALT/FORELAND,4478,CRETACEOUS,CHALKY LIMESTONE,200.0,110.0,27.0,7.0
FORD-GERALDINE,BELL CANYON,USA,NORTH AMERICA,PERMIAN,COMPRESSION,31.92,-104.0,CONOCOPHILLIPS,ONSHORE,OIL,NEARLY DEPLETED,FORELAND,2650,PERMIAN,SANDSTONE,47.0,25.0,21.0,18.0
GOTURDEPE,RED SERIES,TURKMENISTAN,FORMER SOVIET UNION,CASPIAN SOUTH,COMPRESSION/EVAPORITE/EXTENSION/LINKED,39.66,53.77,TURKMENNEFT,ONSHORE,OIL,MATURE PRODUCTION,THRUST,5200,NEOGENE,SANDSTONE,7500.0,800.0,23.0,100.0
ANSCHUTZ RANCH EAST,NUGGET,USA,NORTH AMERICA,WESTERN OVERTHRUST,COMPRESSION,41.0799,-111.0518,BP,ONSHORE,GAS-CONDENSATE,DECLINING PRODUCTION,SUB-THRUST,12370,JURASSIC,SANDSTONE,1020.0,816.0,10.0,3.0
RHOURDE EL BAGUEL,MENKEL /HASSAOUNA,ALGERIA,AFRICA,GHADAMES,COMPRESSION/EROSION/EXTENSION,31.39,,SONATRACH,ONSHORE,OIL,REJUVENATING,INTRACRATONIC,8200,CAMBRIAN,SANDSTONE,1800.0,902.0,9.0,5.0
SAIH RAWL,BARIK,OMAN,MIDDLE EAST,GHABA SALT,COMPRESSION/EROSION/GRAVITY/EVAPORITE/EXTENSION,21.318,56.7018,PDO,ONSHORE,GAS-CONDENSATE,DEVELOPING,SALT/FORELAND,14600,CAMBRIAN-ORDOVICIAN,SANDSTONE,700.0,450.0,9.0,7.0
TURNER VALLEY,TURNER VALLEY (RUNDLE POOL),CANADA,NORTH AMERICA,WESTERN CANADA,COMPRESSION,50.6704,-114.2665,TALISMAN,ONSHORE,OIL,MATURE PRODUCTION,SUB-THRUST/FORELAND,3000,CARBONIFEROUS,DOLOMITE,450.0,296.0,8.2,7.0
ETAME,GAMBA,GABON,AFRICA,GABON SOUTH,EXTENSION/EROSION/GRAVITY/EVAPORITE,-3.7656,10.5213,VAALCO,OFFSHORE,OIL,DEVELOPING,SUB-SALT/RIFT,5590,CRETACEOUS,SANDSTONE,47.0,36.0,30.0,1550.0
CHELEKEN,RED SERIES,TURKMENISTAN,FORMER SOVIET UNION,CASPIAN SOUTH,COMPRESSION/EVAPORITE/EXTENSION/LINKED,39.58,53.13,TURKMENNEFT,ONSHORE-OFFSHORE,OIL,MATURE PRODUCTION,THRUST,1800,NEOGENE,SANDSTONE,7500.0,190.0,19.0,30.0
BRAVO DOME,TUBB,USA,NORTH AMERICA,SIERRA GRANDE UPLIFT,COMPRESSION,36.0049,-103.8177,BP,ONSHORE,CARBON DIOXIDE,PLATEAU PRODUCTION,FORELAND,1960,PERMIAN,SANDSTONE,250.0,120.0,20.0,42.0
BALAM SOUTH,TELISA 600,INDONESIA,FAR EAST,SUMATRA CENTRAL,INVERSION/STRIKE-SLIP/TRANSPRESSION/EXTENSION/BASEMENT-I,1.6669999999999998,100.733,CALTEX PACIFIC,ONSHORE,OIL,REJUVENATING,INVERSION/BACKARC,1060,NEOGENE,LOW-RESISTIVITY SANDSTONE,120.0,70.0,32.0,68.0
VICTOR,LEMAN SANDSTONE,UK,EUROPE,NORTH SEA SOUTHERN,INVERSION/COMPRESSION/EXTENSION/EVAPORITE/GRAVITY,53.3299,2.3626,CONOCOPHILLIPS,OFFSHORE,GAS,DECLINING PRODUCTION,SUB-SALT/INVERSION,8175,PERMIAN,SANDSTONE,375.0,369.0,16.0,52.0
BOONSVILLE,BEND CONGLOMERATE,USA,NORTH AMERICA,FORT WORTH,INVERSION/EXTENSION/COMPRESSION,33.1875,-97.9167,NUMEROUS,ONSHORE,GAS,MATURE PRODUCTION,FORELAND,4500,CARBONIFEROUS,CONGLOMERATE,1100.0,73.0,10.0,3.0
CAROLINE,SWAN HILLS (BEAVERHILL LAKE A),,,,COMPRESSION,,,NUMEROUS,ONSHORE,GAS-CONDENSATE,DECLINING PRODUCTION,FORELAND,11500,DEVONIAN,DOLOMITE,300.0,60.0,10.0,100.0
DUKHAN,UWAINAT,QATAR,MIDDLE EAST,THE GULF,COMPRESSION/GRAVITY/EVAPORITE/EXTENSION/LINKED,25.4211,50.7836,QATAR PETROLEUM,ONSHORE,OIL,UNKNOWN,SALT/FORELAND,6721,JURASSIC,LIMESTONE,120.0,75.0,18.0,15.0
EKOFISK WEST,TOR-EKOFISK,NORWAY,EUROPE,NORTH SEA CENTRAL,INVERSION/COMPRESSION/EXTENSION/EVAPORITE,56.5667,3.0847,CONOCOPHILLIPS,OFFSHORE,GAS-CONDENSATE,ABANDONED,SALT/INVERSION/RIFT,9870,CRETACEOUS-PALEOGENE,CHALK,650.0,360.0,30.0,1.5
VERKHNECHONA,NEPA (VCH1-VCH2),RUSSIA,FORMER SOVIET UNION,SIBERIAN EASTERN,INVERSION/COMPRESSION/EXTENSION,60.8929,109.0385,VERKHNECHONSKNEFTEGAZ,ONSHORE,OIL,DEVELOPING,INVERSION/RIFT,5216,PROTEROZOIC,SANDSTONE,200.0,25.0,10.0,209.0
COALINGA,TEMBLOR,USA,,,COMPRESSION/STRIKE-SLIP/TRANSPRESSION/BASEMENT-I,36.2674,-120.3659,CHEVRON AND OTHERS,ONSHORE,OIL,MATURE PRODUCTION,WRENCH/FOREARC,500,NEOGENE,SHALY SANDSTONE,700.0,190.0,34.0,850.0
OROCUAL,CARAPITA,VENEZUELA,LATIN AMERICA,EASTERN VENEZUELA,COMPRESSION/EXTENSION/LINKED,9.8667,-63.3333,PDVSA,ONSHORE,OIL,CONTINUING DEVELOPMENT,THRUST/FORELAND,10150,NEOGENE,SANDSTONE,300.0,160.0,13.0,35.0
LOCKHART CROSSING,WILCOX (1ST WILCOX SAND),USA,NORTH AMERICA,GULF OF MEXICO NORTHERN ONSHORE,GRAVITY/EXTENSION/EVAPORITE/SYNSEDIMENTATION,30.5218,-90.9141,CALLON PETROLEUM AND OTHERS,ONSHORE,OIL,MATURE PRODUCTION,DELTA/PASSIVE MARGIN,10082,PALEOGENE,SANDSTONE,135.0,26.0,20.0,35.0
RAINBOW TREND,UPPER KEG RIVER-MUSKEG (RAINBOW A),CANADA,NORTH AMERICA,WESTERN CANADA,COMPRESSION/EVAPORITE/GRAVITY,58.5052,-119.2926,NUMEROUS,ONSHORE,OIL,DECLINING PRODUCTION,FORELAND,5866,DEVONIAN,LIMESTONE,756.0,400.0,11.8,37.0
WATERTON,RUNDLE-WABAMUN (A POOL),CANADA,NORTH AMERICA,WESTERN CANADA,COMPRESSION,49.3077,-114.0869,SHELL,ONSHORE,GAS-CONDENSATE,MATURE PRODUCTION,SUB-THRUST/FORELAND,8100,DEVONIAN-CARBONIFEROUS,DOLOMITE,2350.0,142.0,4.0,0.6
WEST SEMINOLE,SAN ANDRES,,,,COMPRESSION,,,OCCIDENTAL,ONSHORE,OIL,NEARLY DEPLETED,FORELAND,4810,PERMIAN,DOLOMITE,600.0,40.0,9.9,9.0
ALPINE,ALPINE,,,,COMPRESSION,,,CONOCOPHILLIPS,ONSHORE,OIL,PLATEAU PRODUCTION,FORELAND,6600,JURASSIC,SANDSTONE,50.0,49.0,20.0,15.0
KATNOOK,PRETTY HILL (SANDSTONE),AUSTRALIA,FAR EAST,OTWAY,INVERSION/COMPRESSION/EXTENSION,-37.4556,140.7789,BORAL ENERGY RESOURCES LTD,ONSHORE,GAS,PLATEAU PRODUCTION,RIFT,9286,CRETACEOUS,SANDSTONE,221.0,62.0,14.5,8.6
HEATHER,BRENT,UK,EUROPE,NORTH SEA NORTHERN,EXTENSION,60.95,0.8833,DNO,OFFSHORE,OIL,MATURE PRODUCTION,RIFT,8981,JURASSIC,SANDSTONE,210.0,113.0,10.0,20.0
EKOFISK,TOR-EKOFISK,NORWAY,EUROPE,NORTH SEA CENTRAL,INVERSION/COMPRESSION/EXTENSION/EVAPORITE,56.5357,3.1985,CONOCOPHILLIPS,OFFSHORE,OIL,SECOND PLATEAU PRODUTION,SALT/INVERSION/RIFT,9250,CRETACEOUS-PALEOGENE,CHALK,820.0,590.0,32.0,1.5
RANGELY,WEBER,USA,NORTH AMERICA,UINTA/PICEANCE,COMPRESSION,40.1135,-108.8829,CHEVRON,ONSHORE,OIL,DECLINING PRODUCTION,THRUST,5500,CARBONIFEROUS-PERMIAN,SANDSTONE,526.0,189.0,12.0,8.0
ELKHORN RANCH,MISSION CANYON (MADISON),USA,NORTH AMERICA,WILLISTON,COMPRESSION,47.2376,-103.5028,TENNECO /CENEX /SHELL,ONSHORE,OIL,DECLINING PRODUCTION,INTRACRATONIC,9125,CARBONIFEROUS,DOLOMITE,105.0,40.0,16.0,25.0
BEAVER LODGE,MISSION CANYON (MADISON),,,,COMPRESSION,,,AMERADA HESS,ONSHORE,OIL,REJUVENATING,INTRACRATONIC,8350,CARBONIFEROUS,LIMESTONE,120.0,20.0,6.0,1.0
TALCO,PALUXY,,,,GRAVITY/EXTENSION/EVAPORITE/SYNSEDIMENTATION,,,EXXONMOBIL,ONSHORE,OIL,NEARLY DEPLETED,SALT/PASSIVE MARGIN,4059,CRETACEOUS,SANDSTONE,275.0,44.0,25.0,2460.0
AUK,ZECHSTEIN (HALIBUT),UK,EUROPE,NORTH SEA CENTRAL,EXTENSION,56.4125,2.0286,SHELL,OFFSHORE,OIL,DEPLETED,RIFT,7044,PERMIAN,DOLOMITE,30.0,30.0,13.0,53.0
REDWATER,LEDUC,CANADA,NORTH AMERICA,WESTERN CANADA,COMPRESSION,53.65,-113.3333,IMPERIAL OIL RESOURCES,ONSHORE,OIL,NEARLY DEPLETED,FORELAND,3080,DEVONIAN,LIMESTONE,800.0,100.0,8.0,100.0
HEIDRUN,FANGST,NORWAY,EUROPE,MID-NORWAY SHELF,EXTENSION/EROSION,65.3378,7.3096,STATOILHYDRO,OFFSHORE,OIL,PLATEAU PRODUCTION,RIFT,5692,JURASSIC,SANDSTONE,230.0,207.0,28.0,1450.0
QARUN,LOWER BAHARIYA,EGYPT,AFRICA,GINDI,INVERSION/COMPRESSION/EXTENSION,29.783,,QARUN PETROLEUM,ONSHORE,OIL,DEVELOPING,INVERSION/RIFT,8450,CRETACEOUS,LOW-RESISTIVITY SANDSTONE,145.0,45.0,18.0,700.0
LOBSTER,BULMINELLA 1 SAND,USA,NORTH AMERICA,GULF OF MEXICO NORTHERN OFFSHORE,GRAVITY/EXTENSION/EVAPORITE/DIAPIR/SYNSEDIMENTATION,28.101,-90.2021,MARATHON,OFFSHORE,OIL,DECLINING PRODUCTION,DELTA/SALT/PASSIVE MARGIN,8075,NEOGENE,SANDSTONE,460.0,150.0,24.0,900.0
BALDPATE,BIG SAND,USA,NORTH AMERICA,GULF OF MEXICO NORTHERN OFFSHORE,GRAVITY/EXTENSION/EVAPORITE/SYNSEDIMENTATION,27.69,-91.73,AMERADA HESS,OFFSHORE,GAS,PLATEAU PRODUCTION,SALT/PASSIVE MARGIN,13850,NEOGENE,SANDSTONE,118.0,100.0,27.0,836.0
MISKAR,ALEG (R1 INFERIOR),TUNISIA,AFRICA,PELAGIAN,INVERSION/COMPRESSION/EXTENSION,34.3856,11.8944,BG,OFFSHORE,GAS,DEVELOPING,RIFT,9967,CRETACEOUS,LIMESTONE,85.0,75.0,14.0,5.0
GAMYSHLDZHA,RED SERIES (HK-1 TO HK-5),TURKMENISTAN,FORMER SOVIET UNION,CASPIAN SOUTH,COMPRESSION/SHALE/REACTIVATION/BASEMENT-I,36.4333,54.0,TURKMENNEFT,ONSHORE,OIL,DECLINING PRODUCTION,FORELAND/THRUST,9088,NEOGENE,SANDSTONE,1800.0,160.0,20.0,125.0
VAREGAN,MEGION-VAREGAN (A5-B10),RUSSIA,FORMER SOVIET UNION,SIBERIAN WESTERN,COMPRESSION,62.6167,77.6622,NOYABRSKNEFTEGAS,ONSHORE,OIL,DECLINING PRODUCTION,INTRACRATONIC,5577,CRETACEOUS,SANDSTONE,3150.0,429.0,23.6,187.0
CANO LIMON,LOWER CARBONERA,COLOMBIA,LATIN AMERICA,LLANOS,STRIKE-SLIP/BASEMENT-I,6.943,-71.1397,OCCIDENTAL,ONSHORE,OIL,REJUVENATING,WRENCH/FORELAND,6950,PALEOGENE,SANDSTONE,235.0,126.0,24.0,1450.0
ANDREW,LISTA (ANDREW SANDSTONE),,,,INVERSION/COMPRESSION/EXTENSION/EVAPORITE/GRAVITY,,,BP,OFFSHORE,OIL,DECLINING PRODUCTION,SALT/RIFT,7595,PALEOGENE,SANDSTONE,541.0,367.0,20.0,200.0
ROURKE GAP,UPPER MINNELUSA (C SAND),,,,COMPRESSION,,,WILDFIRE PARTNERS INC,ONSHORE,OIL,NEARLY DEPLETED,FORELAND,10225,PERMIAN,SANDSTONE,100.0,25.0,11.3,97.0
ALWYN NORTH,STATFJORD,UK,EUROPE,NORTH SEA NORTHERN,EXTENSION/EROSION,60.7833,1.7333,TOTAL,OFFSHORE,GAS-CONDENSATE,MATURE PRODUCTION,RIFT,10545,TRIASSIC-JURASSIC,SANDSTONE,869.0,512.0,13.5,330.0
YACHENG 13-1,LINGSHUI (LINGSHUI-3),CHINA,FAR EAST,QIONGDONGNAN,EXTENSION,17.5142,109.0088,CNOOC,OFFSHORE,GAS,PLATEAU PRODUCTION,RIFT,11270,PALEOGENE,SANDSTONE,686.0,308.0,12.68,281.0
YAREGA,KOYVA,RUSSIA,FORMER SOVIET UNION,TIMAN-PECHORA,COMPRESSION/EVAPORITE,63.2992,53.6303,KOMINEFT,ONSHORE,OIL,PLATEAU PRODUCTION,INVERSION/FORELAND,480,DEVONIAN,SANDSTONE,100.0,56.0,21.0,1000.0
NORTH BURBANK,BURBANK,USA,NORTH AMERICA,CHEROKEE,INVERSION/COMPRESSION/EXTENSION/EROSION,36.7297,-96.7333,CONOCOPHILLIPS,ONSHORE,OIL,UNKNOWN,FORELAND,3020,CARBONIFEROUS,SANDSTONE,90.0,47.0,16.8,50.0
YIBAL,SHUAIBA,OMAN,MIDDLE EAST,FAHUD SALT,COMPRESSION/EVAPORITE,22.1333,56.0,PDO,ONSHORE,OIL,DECLINING PRODUCTION,SALT/FORELAND,4440,CRETACEOUS,CHALK,350.0,300.0,28.0,5.0
FAIRWAY,JAMES LIMESTONE,USA,NORTH AMERICA,GULF OF MEXICO NORTHERN ONSHORE,GRAVITY/EXTENSION/EVAPORITE/DIAPIR,32.1068,-95.5215,HUNT OIL COMPANY,ONSHORE,OIL,NEARLY DEPLETED,SALT/PASSIVE MARGIN,10000,CRETACEOUS,LIMESTONE,150.0,70.0,11.0,25.0
MALING,YANAN,CHINA,FAR EAST,ORDOS,COMPRESSION,36.22,107.62,PETROCHINA,ONSHORE,OIL,DECLINING PRODUCTION,FORELAND,3776,JURASSIC,SANDSTONE,984.0,24.0,16.0,72.0
CINTA,TALANG AKAR (ZONE 3),INDONESIA,FAR EAST,SUNDA,INVERSION/STRIKE-SLIP/TRANSPRESSION/EXTENSION/BASEMENT-I,-5.4397,106.2639,REPSOL YPF,OFFSHORE,OIL,MATURE PRODUCTION,INVERSION/BACKARC,2880,PALEOGENE,SANDSTONE,200.0,65.0,18.0,505.0
KOVYKTA,PARFENOV,RUSSIA,FORMER SOVIET UNION,SIBERIAN EASTERN,COMPRESSION/EVAPORITE,55.4167,106.0,RUSIA PETROLEUM,ONSHORE,GAS,UNDEVELOPED,INTRACRATONIC,4000,PROTEROZOIC,SANDSTONE,200.0,49.0,16.0,5.0
WEEKS ISLAND,S SAND (RESERVOIR B) OR S RB,USA,NORTH AMERICA,GULF OF MEXICO NORTHERN ONSHORE,GRAVITY/EXTENSION/EVAPORITE/DIAPIR/SYNSEDIMENTATION,29.8184,-91.778,SHELL AND OTHERS,ONSHORE,OIL,NEARLY DEPLETED,SALT/PASSIVE MARGIN,11600,NEOGENE,SANDSTONE,221.0,186.0,26.0,3500.0
MISKAR,ALEG (BIRENO),TUNISIA,AFRICA,PELAGIAN,INVERSION/COMPRESSION/EXTENSION,34.3856,11.8944,BG,OFFSHORE,GAS-CONDENSATE,DEVELOPING,RIFT,10702,CRETACEOUS,CHALKY LIMESTONE,128.0,49.0,13.0,0.1
ZAFIRO,AGBADA (QUA IBOE SANDS),EQUATORIAL GUINEA,AFRICA,NIGER DELTA,GRAVITY/COMPRESSION/SHALE/EXTENSION/LINKED,3.8428,8.0797,EXXONMOBIL,OFFSHORE,OIL,DEVELOPING,DELTA/PASSIVE MARGIN,4400,NEOGENE,SANDSTONE,190.0,100.0,27.0,2000.0
TERN,BRENT,UK,EUROPE,NORTH SEA NORTHERN,INVERSION/COMPRESSION/EXTENSION,61.2667,0.9167,SHELL,OFFSHORE,OIL,DECLINING PRODUCTION,RIFT,7252,JURASSIC,SANDSTONE,273.0,170.0,22.0,350.0
LAOJUNMIAO,BAIYANGHE (GANYOUQUAN K SAND),CHINA,FAR EAST,JIUQUAN,COMPRESSION/EROSION/EXTENSION/LINKED,39.7658,97.5663,PETROCHINA,ONSHORE,OIL,NEARLY DEPLETED,THRUST,335,PALEOGENE,SANDSTONE,210.0,43.0,21.0,237.0
KURTEN,WOODBINE-EAGLEFORD,USA,NORTH AMERICA,GULF OF MEXICO NORTHERN ONSHORE,GRAVITY/EXTENSION/EVAPORITE,30.786,-96.4318,NUMEROUS,ONSHORE,OIL,DECLINING PRODUCTION,PASSIVE MARGIN,7940,CRETACEOUS,SANDSTONE,300.0,24.0,9.3,0.55
ARDJUNA-B,CIBULAKAN,INDONESIA,FAR EAST,JAVA NORTHWEST,INVERSION/COMPRESSION/EXTENSION,-5.895,107.6981,BP,OFFSHORE,OIL,MATURE PRODUCTION,BACKARC,2310,NEOGENE,LOW-RESISTIVITY SANDSTONE,1197.0,263.0,26.0,300.0
PARENTIS,UNNAMED,FRANCE,EUROPE,AQUITAINE,COMPRESSION/EROSION,44.3367,-1.0959,VERMILION,ONSHORE-OFFSHORE,OIL,NEARLY DEPLETED,FORELAND,6550,CRETACEOUS,DOLOMITE,1300.0,200.0,11.0,10.0
CASHIRIARI,VIIVIAN,,,,COMPRESSION,,,PLUSPETROL,ONSHORE,GAS-CONDENSATE,UNDEVELOPED,THRUST,6150,CRETACEOUS,SANDSTONE,245.0,210.0,13.0,1000.0
MARKOVO,PARFENOV,RUSSIA,FORMER SOVIET UNION,SIBERIAN EASTERN,COMPRESSION/EVAPORITE,57.4375,107.3058,VOSTSIBNEFTEGAZGEOLOGIYA,ONSHORE,GAS-CONDENSATE,DEVELOPING,RIFT/SALT,8596,PROTEROZOIC,SANDSTONE,172.0,25.0,9.0,152.0
EAST CROSSFIELD,WABAMUN (A POOL),CANADA,NORTH AMERICA,WESTERN CANADA,COMPRESSION/EROSION,51.4001,-114.0265,BP AND OTHERS,ONSHORE,GAS,MATURE PRODUCTION,FORELAND,7700,DEVONIAN,DOLOMITE,100.0,67.6,6.1,5.2
ERSKINE,PUFFIN (ERSKINE SANDSTONE),UK,EUROPE,NORTH SEA CENTRAL,INVERSION/COMPRESSION/EXTENSION,57.0556,2.0694,CHEVRON,OFFSHORE,GAS-CONDENSATE,DECLINING PRODUCTION,RIFT,14700,JURASSIC,SHALY SANDSTONE,220.0,210.0,23.0,10.0
QUIRIQUIRE,QUIRIQUIRE,VENEZUELA,LATIN AMERICA,EASTERN VENEZUELA,COMPRESSION/EXTENSION/LINKED/EROSION,10.0,-63.1667,REPSOL YPF /MAXUS,ONSHORE,OIL,REJUVENATING,FORELAND/THRUST,1613,NEOGENE,SANDSTONE,1600.0,230.0,20.0,450.0
LITTLE KNIFE,MISSION CANYON (MADISON),USA,NORTH AMERICA,WILLISTON,COMPRESSION,47.2895,-103.0985,CHEVRON,ONSHORE,OIL,DECLINING PRODUCTION,INTRACRATONIC,9673,CARBONIFEROUS,DOLOMITE,465.0,24.0,14.0,30.0
ORENBURG,UNNAMED,,,,COMPRESSION/EVAPORITE,,,ORENBURGGAZPROM,ONSHORE,GAS,UNKNOWN,SUB-SALT/FORELAND,4232,CARBONIFEROUS-PERMIAN,LIMESTONE,1360.0,563.0,11.0,2.0
ABU MADI-EL QARA,ABU MADI (LEVEL II),EGYPT,AFRICA,NILE DELTA,STRIKE-SLIP/TRANSTENSION/SHALE/EVAPORITE/BASEMENT-I,31.4382,31.3616,IEOC,ONSHORE,GAS,DECLINING PRODUCTION,WRENCH/DELTA,9843,NEOGENE,THINLY-BEDDED SANDSTONE,115.0,66.0,22.0,200.0
EL BORMA,KIRCHAOU,TUNISIA /ALGERIA,AFRICA,GHADAMES,COMPRESSION/EXTENSION/EROSION/EVAPORITE,31.65,9.18,SITEP /SONATRACH,ONSHORE,OIL,DECLINING PRODUCTION,SUB-SALT,9022,TRIASSIC,SANDSTONE,353.0,190.0,17.0,500.0
ASAB,THAMAMA ZONE B-C,UAE,MIDDLE EAST,RUB AL KHALI,COMPRESSION/EVAPORITE/EXTENSION/LINKED,23.298,54.2216,ADCO,ONSHORE,OIL,DECLINING PRODUCTION,SALT/FORELAND,7850,CRETACEOUS,LIMESTONE,274.0,250.0,30.0,20.0
CAROLINE,CARDIUM (E POOL),CANADA,NORTH AMERICA,WESTERN CANADA,COMPRESSION,51.9278,-114.5405,NUMEROUS,ONSHORE,OIL,NEARLY DEPLETED,FORELAND,7975,CRETACEOUS,SANDSTONE,300.0,7.0,11.0,20.0
ORIBI,14A SEQUENCE,SOUTH AFRICA,AFRICA,BREDASDORP,EXTENSION,-35.233000000000004,21.51,PETROSA,OFFSHORE,OIL,PLATEAU PRODUCTION,RIFT/PASSIVE MARGIN,7306,CRETACEOUS,SANDSTONE,115.0,98.0,18.0,500.0
DAN,CHALK GROUP (TOR-EKOFISK),DENMARK,EUROPE,NORTH SEA CENTRAL,INVERSION/COMPRESSION/EXTENSION/EVAPORITE,55.4696,5.13375,MAERSK,OFFSHORE,OIL,PLATEAU PRODUCTION,SALT/INVERSION/RIFT,5560,CRETACEOUS-PALEOGENE,CHALK,500.0,160.0,28.0,1.75
WEYBURN,CHARLES (MIDALE BEDS),CANADA,NORTH AMERICA,WILLISTON,COMPRESSION,49.5354,-103.7584,ENCANA,ONSHORE,OIL,SECOND PLATEAU PRODUTION,INTRACRATONIC,4300,CARBONIFEROUS,DOLOMITE,82.0,33.0,15.0,10.0
CHATEAURENARD,CHATEAURENARD,FRANCE,EUROPE,PARIS,EXTENSION,47.9903,2.9619,MADISON /CHART,ONSHORE,OIL,NEARLY DEPLETED,INTRACRATONIC,1860,CRETACEOUS,SANDSTONE,28.0,15.0,27.0,1000.0
ANTRIM SHALE,ANTRIM SHALE (NORWOOD-LACHINE),USA,NORTH AMERICA,MICHIGAN,STRIKE-SLIP/TRANSPRESSION,44.95399999999999,-84.6603,NUMEROUS,ONSHORE,GAS,PLATEAU PRODUCTION,INTRACRATONIC,500,DEVONIAN,SHALE,100.0,80.0,4.0,10.0
IDD EL SHARGI NORTH DOME,SHUAIBA,QATAR,MIDDLE EAST,RUB AL KHALI,GRAVITY/EVAPORITE/COMPRESSION,25.5,52.4,OCCIDENTAL,OFFSHORE,OIL,MATURE PRODUCTION,SALT/FORELAND,4381,CRETACEOUS,CHALKY LIMESTONE,328.0,256.0,25.0,3.0
NEWBURG,CHARLES,USA,NORTH AMERICA,WILLISTON,COMPRESSION,48.7502,-100.9196,AMERADA HESS,ONSHORE,OIL,MATURE PRODUCTION,INTRACRATONIC,3310,CARBONIFEROUS,DOLOMITIC LIMESTONE,120.0,17.8,10.0,2.6
ALABAMA FERRY,UPPER GLEN ROSE D ZONE,USA,NORTH AMERICA,GULF OF MEXICO NORTHERN ONSHORE,GRAVITY/EXTENSION/EVAPORITE,31.2143,-95.7981,NUMEROUS,ONSHORE,OIL,MATURE PRODUCTION,PASSIVE MARGIN,8700,CRETACEOUS,LIMESTONE,95.0,15.0,12.0,20.0
CARMOPOLIS,CARMOPOLIS (MURIBECA),BRAZIL,LATIN AMERICA,SERGIPE-ALAGOAS,EXTENSION/EVAPORITE/GRAVITY,-10.6588,-36.9488,PETROBRAS,ONSHORE,OIL,DECLINING PRODUCTION,PASSIVE MARGIN,1788,CRETACEOUS,CONGLOMERATE,380.0,350.0,15.0,60.0
LAOJUNMIAO,BAIYANGHE (JIANQUANZI L SAND),CHINA,FAR EAST,JIUQUAN,COMPRESSION/EROSION/EXTENSION/LINKED,39.7658,97.5663,PETROCHINA,ONSHORE,OIL,NEARLY DEPLETED,THRUST,1362,PALEOGENE,SANDSTONE,180.0,39.0,23.0,619.0
YANGSANMU,GUANTAO-MINGHUAZHEN,CHINA,FAR EAST,BOHAI,EXTENSION,38.37,117.36,PETROCHINA,ONSHORE,OIL,MATURE PRODUCTION,RIFT,3898,NEOGENE,SANDSTONE,2615.0,66.0,31.0,1475.0
KITTY,MUDDY,USA,NORTH AMERICA,POWDER RIVER,COMPRESSION,44.3344,-105.6783,DEVON ENERGY AND OTHERS,ONSHORE,OIL,NEARLY DEPLETED,FORELAND,8650,CRETACEOUS,SHALY SANDSTONE,80.0,12.0,10.0,15.0
SNAPPER,LATROBE (N-1 UNIT),AUSTRALIA,FAR EAST,GIPPSLAND,INVERSION/COMPRESSION/EXTENSION/EROSION,-38.2008,148.0136,EXXONMOBIL /BHP BILLITON,OFFSHORE,GAS-CONDENSATE,PLATEAU PRODUCTION,INVERSION/RIFT,3682,PALEOGENE,SANDSTONE,820.0,394.0,24.0,2000.0
PROVOST,VIKING (C POOL),CANADA,NORTH AMERICA,WESTERN CANADA,COMPRESSION/EROSION,52.2022,-110.3508,NUMEROUS,ONSHORE,OIL,NEARLY DEPLETED,FORELAND,2950,CRETACEOUS,LOW-RESISTIVITY SANDSTONE,70.0,4.0,25.0,170.0
RAVEN CREEK,UPPER MINNELUSA (B SAND),USA,NORTH AMERICA,POWDER RIVER,COMPRESSION,44.1497,-105.1171,CITATION OIL and GAS,ONSHORE,OIL,MATURE PRODUCTION,FORELAND,8278,PERMIAN,SANDSTONE,100.0,37.0,12.0,50.0
EAST TEXAS,WOODBINE,USA,NORTH AMERICA,GULF OF MEXICO NORTHERN ONSHORE,GRAVITY/EXTENSION/EVAPORITE,32.1853,-94.9257,NUMEROUS,ONSHORE,OIL,DECLINING PRODUCTION,PASSIVE MARGIN,3500,CRETACEOUS,SANDSTONE,51.0,37.0,25.0,2098.0
DELTA SOUTH,AGBADA (G2 SAND),NIGERIA,AFRICA,NIGER DELTA,GRAVITY/EXTENSION/SHALE,5.6139,5.1018,CHEVRON,OFFSHORE,OIL,DECLINING PRODUCTION,DELTA/PASSIVE MARGIN,7985,NEOGENE,SANDSTONE,66.0,50.0,28.0,2000.0
SOUTH COWDEN,GRAYBURG,USA,,,COMPRESSION,31.749,-102.443,NUMEROUS,ONSHORE,OIL,DECLINING PRODUCTION,FORELAND,4100,PERMIAN,DOLOMITE,400.0,90.0,8.8,15.0
LUGINETS,TYUMEN-NAUNAK,RUSSIA,FORMER SOVIET UNION,SIBERIAN WESTERN,COMPRESSION,58.1,78.5167,TOMSKNEFT (YUKOS),ONSHORE,OIL,REJUVENATING,INTRACRATONIC,7610,JURASSIC,SANDSTONE,300.0,200.0,17.0,20.0
LAOJUNMIAO,BAIYANGHE (JIANQUANZI M SAND),CHINA,FAR EAST,JIUQUAN,COMPRESSION/EROSION/EXTENSION/LINKED,39.7658,97.5663,PETROCHINA,ONSHORE,OIL,MATURE PRODUCTION,THRUST,1532,PALEOGENE,SANDSTONE,210.0,82.0,17.8,24.0
MOXA ARCH-LA BARGE,FRONTIER (TIP TOP FIELD),USA,NORTH AMERICA,GREATER GREEN RIVER,COMPRESSION/EROSION,41.6119,-110.2,NUMEROUS,ONSHORE,GAS,DECLINING PRODUCTION,FORELAND,7000,CRETACEOUS,SANDSTONE,1100.0,90.0,13.0,0.1
BERYL,BERYL,UK,EUROPE,NORTH SEA NORTHERN,EXTENSION/EROSION,59.5498,1.5318,EXXONMOBIL,OFFSHORE,OIL,DECLINING PRODUCTION,RIFT,9200,JURASSIC,SANDSTONE,500.0,425.0,17.0,350.0
DJARKUDUK,KYZYLTASH,AFGHANISTAN,FAR EAST,AMU DARYA,COMPRESSION/EVAPORITE,36.6167,65.7,AFGHANGAS,ONSHORE,GAS,REJUVENATING,INTRACRATONIC,6560,CRETACEOUS,SANDSTONE,450.0,89.0,23.0,214.0
HUNTINGTON BEACH,JONES ZONE,USA,NORTH AMERICA,LOS ANGELES,STRIKE-SLIP/TRANSPRESSION/BASEMENT-I,33.6998,-118.0335,NUMEROUS,ONSHORE-OFFSHORE,OIL,NEARLY DEPLETED,WRENCH,2326,NEOGENE,THINLY-BEDDED SANDSTONE,700.0,375.0,28.0,400.0
SUNNILAND TREND,SUNNILAND LIMESTONE (WEST FELDA FIELD),USA,NORTH AMERICA,FLORIDA/BAHAMAS,EXTENSION,26.2683,-81.3397,NUMEROUS,ONSHORE,OIL,MATURE PRODUCTION,PASSIVE MARGIN,11364,CRETACEOUS,LIMESTONE,80.0,17.0,15.0,90.0
DURI,BEKASAP (KEDUA-PERTAMA SANDS),INDONESIA,FAR EAST,SUMATRA CENTRAL,INVERSION/STRIKE-SLIP/TRANSPRESSION/EXTENSION/BASEMENT-I,1.2956,101.2304,CALTEX PACIFIC INDONESIA,ONSHORE,OIL,MATURE PRODUCTION,INVERSION/BACKARC,400,NEOGENE,SANDSTONE,280.0,150.0,34.0,1500.0
LITTLE SAND DRAW,PHOSPHORIA (ERVAY),USA,NORTH AMERICA,BIG HORN,COMPRESSION/EXTENSION/LINKED,43.8,-108.3,CITATION OIL and GAS,ONSHORE,OIL,MATURE PRODUCTION,FORELAND,5880,PERMIAN,DOLOMITE,100.0,65.0,15.0,2.6
MILLS RANCH,HUNTON (CHIMNEY HILL-HENRYHOUSE),USA,NORTH AMERICA,ANADARKO,COMPRESSION/EROSION,35.3676,-100.0793,CHEVRON,ONSHORE,GAS,NEARLY DEPLETED,THRUST,19888,SILURIAN,DOLOMITE,930.0,94.0,6.0,7.0
ORMEN LANGE,JORSALFARE-VALE (EGGA),NORWAY,EUROPE,MID-NORWAY SHELF,INVERSION/COMPRESSION/EXTENSION,63.541,5.3375,STATOILHYDRO,OFFSHORE,GAS,DEVELOPING,INVERSION/RIFT,5780,CRETACEOUS-PALEOGENE,SANDSTONE,380.0,115.0,29.0,1000.0
DURI,DURI (RINDU SAND),INDONESIA,,,INVERSION/STRIKE-SLIP/TRANSPRESSION/EXTENSION/BASEMENT-I,1.2956,101.2304,CALTEX PACIFIC INDONESIA,ONSHORE,OIL,MATURE PRODUCTION,INVERSION/BACKARC,220,NEOGENE,SANDSTONE,120.0,52.0,32.0,1900.0
AL HUWAISAH,SHUAIBA,OMAN,MIDDLE EAST,FAHUD SALT,COMPRESSION/EVAPORITE,21.9607,56.0452,PDO,ONSHORE,OIL,REJUVENATING,SALT/FORELAND,4955,CRETACEOUS,LIMESTONE,250.0,100.0,21.0,60.0
HAWKINS,WOODBINE,USA,NORTH AMERICA,GULF OF MEXICO NORTHERN ONSHORE,GRAVITY/EXTENSION/EVAPORITE,32.6351,-95.2209,NUMEROUS,ONSHORE,OIL,NEARLY DEPLETED,SALT/PASSIVE MARGIN,3770,CRETACEOUS,SANDSTONE,525.0,300.0,27.0,3400.0
URENGOY,POKUR (PK1-6),RUSSIA,,,COMPRESSION,66.0533,76.9497,TYUMENNEFTEGAZ,ONSHORE,GAS,DECLINING PRODUCTION,INTRACRATONIC,3514,CRETACEOUS,SANDSTONE,700.0,440.0,30.0,330.0
BERYL,LINNHE,UK,,,EXTENSION/EROSION,59.5498,1.5318,EXXONMOBIL,OFFSHORE,OIL,UNKNOWN,RIFT,9600,JURASSIC,SANDSTONE,300.0,120.0,14.0,100.0
FULLERTON,WICHITA-CLEARFORK,USA,NORTH AMERICA,PERMIAN,COMPRESSION,32.388000000000005,-102.803,EXXONMOBIL,ONSHORE,OIL,NEARLY DEPLETED,FORELAND,6700,PERMIAN,DOLOMITE,2000.0,150.0,10.0,3.0
BARQUE,LEMAN SANDSTONE,UK,EUROPE,NORTH SEA SOUTHERN,INVERSION/COMPRESSION/EXTENSION/EVAPORITE/GRAVITY,53.6204,,SHELL,OFFSHORE,GAS,DECLINING PRODUCTION,SUB-SALT/INVERSION,6900,PERMIAN,SANDSTONE,750.0,570.0,11.0,0.5
DELTA SOUTH,AGBADA (G3 SAND),NIGERIA,AFRICA,NIGER DELTA,GRAVITY/EXTENSION/SHALE,5.6139,5.1018,CHEVRON,OFFSHORE,OIL,DECLINING PRODUCTION,DELTA/PASSIVE MARGIN,8215,NEOGENE,SANDSTONE,130.0,90.0,26.5,2000.0
BRITANNIA,BRITANNIA SANDSTONE,UK,EUROPE,NORTH SEA CENTRAL,EXTENSION,58.0824,0.8413,BRITTANIA OPERATOR LIMITED,OFFSHORE,GAS-CONDENSATE,DECLINING PRODUCTION,RIFT,11350,CRETACEOUS,SANDSTONE,275.0,120.0,15.0,40.0
QUITMAN,PALUXY,USA,NORTH AMERICA,GULF OF MEXICO NORTHERN ONSHORE,GRAVITY/EXTENSION/EVAPORITE/SYNSEDIMENTATION,32.8253,-95.4951,NUMEROUS,ONSHORE,OIL,NEARLY DEPLETED,SALT/PASSIVE MARGIN,6056,CRETACEOUS,SANDSTONE,400.0,35.0,22.0,600.0
JUMPING POUND,TURNER VALLEY,CANADA,NORTH AMERICA,WESTERN CANADA,COMPRESSION,51.1425,-114.5786,SHELL,ONSHORE,GAS,NEARLY DEPLETED,SUB-THRUST/FORELAND,8100,CARBONIFEROUS,DOLOMITE,250.0,140.0,8.3,4.0
KHAFJI,BURGAN,NEUTRAL ZONE,MIDDLE EAST,THE GULF,COMPRESSION/EVAPORITE/EXTENSION/LINKED,28.5333,48.9167,ARABIAN OIL CO,OFFSHORE,OIL,REJUVENATING,FORELAND/SALT,4725,CRETACEOUS,SANDSTONE,650.0,329.0,28.0,4500.0
CHATEAURENARD,GRISELLES,FRANCE,EUROPE,PARIS,EXTENSION,47.9903,2.9619,MADISON /CHART,ONSHORE,OIL,NEARLY DEPLETED,INTRACRATONIC,1975,CRETACEOUS,SANDSTONE,20.0,7.0,27.0,1000.0
MAXI,SHAHEJIE (BANQIAO),CHINA,FAR EAST,BOHAI,EXTENSION,38.7,117.53,PETROCHINA,ONSHORE,OIL,NEARLY DEPLETED,RIFT,12425,PALEOGENE,SANDSTONE,755.0,83.0,13.6,11.0
NATIH,NATIH,OMAN,MIDDLE EAST,FAHUD SALT,COMPRESSION/EVAPORITE,22.4333,56.7167,PDO,ONSHORE,OIL,MATURE PRODUCTION,SALT/INVERSION/FORELAND,2433,CRETACEOUS,CHALKY LIMESTONE,1324.0,439.0,19.0,2.6
NATUNA L,TERUMBU,INDONESIA,FAR EAST,NATUNA EAST/SARAWAK,EXTENSION/COMPRESSION,5.4658,109.7833,EXXONMOBIL,OFFSHORE,CARBON DIOXIDE,UNDEVELOPED,BACKARC,8218,NEOGENE,LIMESTONE,5335.0,2976.0,15.0,100.0
CARTHAGE,COTTON VALLEY SANDSTONE,USA,NORTH AMERICA,GULF OF MEXICO NORTHERN ONSHORE,GRAVITY/EXTENSION/EVAPORITE,32.1988,-94.2574,NUMEROUS,ONSHORE,GAS,PLATEAU PRODUCTION,PASSIVE MARGIN,8200,JURASSIC,SANDSTONE,1500.0,150.0,7.0,0.04
DRAUGEN,ROGN (VIKING),NORWAY,EUROPE,MID-NORWAY SHELF,EXTENSION/EROSION,64.3656,7.7891,SHELL,OFFSHORE,OIL,DECLINING PRODUCTION,PASSIVE MARGIN,4416,JURASSIC,SANDSTONE,100.0,66.0,20.0,6000.0
PRIOB,ACHIMOV-VARTOV,RUSSIA,FORMER SOVIET UNION,SIBERIAN WESTERN,COMPRESSION,61.13,70.46,YUGANSKNEFTEGAS /SIBNEFT /SURGUTNEFTEGAS,ONSHORE,OIL,CONTINUING DEVELOPMENT,INTRACRATONIC,7677,CRETACEOUS,SANDSTONE,1300.0,140.0,19.0,3.6
SUIZHONG 36-1,DONGYING,CHINA,FAR EAST,BOHAI,EXTENSION,40.0172,120.8541,CNOOC,OFFSHORE,OIL,PLATEAU PRODUCTION,RIFT,4259,PALEOGENE,SANDSTONE,980.0,160.0,32.0,2600.0
MEANS,SAN ANDRES,USA,NORTH AMERICA,PERMIAN,COMPRESSION,32.5066,-102.5313,EXXONMOBIL,ONSHORE,OIL,NEARLY DEPLETED,FORELAND,4250,PERMIAN,DOLOMITE,237.0,150.0,10.0,10.0
RIMA,AL KHLATA,OMAN,MIDDLE EAST,SOUTH OMAN SALT,GRAVITY/EVAPORITE/EXTENSION,18.8786,56.3146,PDO,ONSHORE,OIL,UNKNOWN,SALT/RIFT,2973,CARBONIFEROUS-PERMIAN,SANDSTONE,250.0,100.0,25.0,500.0
KUPARUK RIVER,KUPARUK RIVER (UNIT C),USA,NORTH AMERICA,NORTH SLOPE,COMPRESSION/EXTENSION/EROSION,70.34,-149.5375,CONOCOPHILLIPS,ONSHORE,OIL,DECLINING PRODUCTION,FORELAND,5620,CRETACEOUS,LOW-RESISTIVITY SANDSTONE,35.0,20.0,24.0,138.0
WILBURTON,ARBUCKLE,USA,NORTH AMERICA,ARKOMA,COMPRESSION/EXTENSION,34.8366,-95.3885,BP,ONSHORE,GAS,MATURE PRODUCTION,THRUST/FORELAND,12860,CAMBRIAN-ORDOVICIAN,DOLOMITE,2250.0,250.0,1.1,0.03
THISTLE,BRENT,UK,EUROPE,NORTH SEA NORTHERN,EXTENSION,61.3833,1.55,DNO,OFFSHORE,OIL,NEARLY DEPLETED,RIFT,7970,JURASSIC,SANDSTONE,475.0,380.0,24.0,1200.0
HALIBUT-COBIA,LATROBE (M1 UNIT),AUSTRALIA,FAR EAST,GIPPSLAND,INVERSION/COMPRESSION/EXTENSION/EROSION,-38.3989,148.3164,EXXONMOBIL /BHP BILLITON,OFFSHORE,OIL,MATURE PRODUCTION,INVERSION/RIFT,7175,PALEOGENE,SANDSTONE,505.0,120.0,20.0,1600.0
ZAKUM,THAMAMA ZONE III,UAE,MIDDLE EAST,RUB AL KHALI,GRAVITY/EVAPORITE/COMPRESSION,24.8667,53.6833,ADMA /ZADCO,OFFSHORE,OIL,PLATEAU PRODUCTION,SALT/FORELAND,7085,CRETACEOUS,LIMESTONE,537.0,110.0,23.0,15.0
POKACHEV,MEGION (BV8),RUSSIA,FORMER SOVIET UNION,SIBERIAN WESTERN,COMPRESSION,61.583,75.1833,SURGUTNEFTEGAS,ONSHORE,OIL,DECLINING PRODUCTION,INTRACRATONIC,7841,CRETACEOUS,SANDSTONE,75.0,24.0,20.0,130.0
BADR EL DIN-1,BAHARIYA,EGYPT,AFRICA,ABU GHARADIG,EXTENSION,29.8589,28.5229,BAPETCO,ONSHORE,OIL,MATURE PRODUCTION,RIFT,11175,CRETACEOUS,LOW-RESISTIVITY SANDSTONE,115.0,46.0,12.0,15.0
TEMSAH,SIDI SALIM,EGYPT,AFRICA,NILE DELTA,STRIKE-SLIP/TRANSTENSION/SHALE/EVAPORITE/BASEMENT-I,31.84,32.145,IEOC,OFFSHORE,GAS-CONDENSATE,DEVELOPING,WRENCH/DELTA,12390,NEOGENE,SANDSTONE,328.0,131.0,24.5,390.0
BUL HANINE,ARAB D,QATAR,MIDDLE EAST,RUB AL KHALI,GRAVITY/EVAPORITE/COMPRESSION,25.4333,52.7,QATAR PETROLEUM,OFFSHORE,OIL,DECLINING PRODUCTION,SALT/FORELAND,7270,JURASSIC,LIMESTONE,240.0,140.0,23.0,200.0
HOUSE CREEK,SUSSEX,USA,NORTH AMERICA,POWDER RIVER,COMPRESSION,43.7456,-105.5703,DEVON ENERGY,ONSHORE,OIL,DECLINING PRODUCTION,FORELAND,7863,CRETACEOUS,SANDSTONE,40.0,15.0,13.0,20.0
GRIFFIN,BIRDRONG,AUSTRALIA,FAR EAST,CARNARVON,INVERSION/COMPRESSION/EXTENSION,-21.2356,114.62,BHP BILLITON,OFFSHORE,OIL,DEVELOPING,RIFT,8100,CRETACEOUS,SANDSTONE,115.0,40.0,15.0,30.0
SANTHAL,KALOL,INDIA,FAR EAST,CAMBAY,INVERSION/COMPRESSION/EXTENSION,23.409,72.202,ONGC,ONSHORE,OIL,REJUVENATING,RIFT,2906,PALEOGENE,SANDSTONE,148.0,66.0,28.0,7500.0
LUCKEY DITCH,DAKOTA SANDSTONE (LOWER MEMBER),USA,NORTH AMERICA,GREATER GREEN RIVER,COMPRESSION/EROSION,41.0204,-110.2755,WHITING OIL and GAS,ONSHORE,OIL,MATURE PRODUCTION,FORELAND,13250,CRETACEOUS,SANDSTONE,250.0,23.0,14.0,60.0
MIDALE,CHARLES (MIDALE BEDS),CANADA,NORTH AMERICA,WILLISTON,COMPRESSION,49.4701,-103.4717,APACHE,ONSHORE,OIL,SECOND PLATEAU PRODUTION,INTRACRATONIC,4400,CARBONIFEROUS,DOLOMITE,64.0,32.0,20.0,3.5
BAI HASSAN,MAIN LIMESTONE,IRAQ,MIDDLE EAST,ZAGROS,COMPRESSION/EVAPORITE,35.6378,44.0272,INOC,ONSHORE,OIL,REJUVENATING,FORELAND,2450,PALEOGENE-NEOGENE,LIMESTONE,900.0,285.0,20.0,50.0
HUANXILING,SHAHEJIE,CHINA,FAR EAST,BOHAI,EXTENSION,41.0249,121.7667,PETROCHINA,ONSHORE,OIL,DECLINING PRODUCTION,RIFT,2310,PALEOGENE,SANDSTONE,525.0,127.0,25.0,1400.0
GARRINGTON,CARDIUM (A SAND),CANADA,NORTH AMERICA,WESTERN CANADA,COMPRESSION,51.7349,-114.0274,HUDSONS BAY OIL and GAS,ONSHORE,OIL,NEARLY DEPLETED,FORELAND,5400,CRETACEOUS,SANDSTONE,300.0,2.12,12.0,7.0
SANAND,KALOL (PAYZONE K-III),INDIA,FAR EAST,CAMBAY,INVERSION/COMPRESSION/EXTENSION,23.1,72.417,ONGC,ONSHORE,OIL,SECOND PLATEAU PRODUTION,RIFT/INVERSION,3939,PALEOGENE,SANDSTONE,410.0,20.0,28.0,1000.0
TIN CUP MESA,PARADOX (UPPER ISMAY),USA,NORTH AMERICA,PARADOX,COMPRESSION/EXTENSION/EVAPORITE,37.4211,-109.1333,COCHRANE RESOURCES /PIONEER,ONSHORE,OIL,NEARLY DEPLETED,INTRACRATONIC,5430,CARBONIFEROUS,DOLOMITE,60.0,50.0,11.0,2.8
VESLEFRIKK,BRENT,NORWAY,EUROPE,NORTH SEA NORTHERN,EXTENSION/EROSION,60.7984,2.9133,STATOILHYDRO,OFFSHORE,OIL,DECLINING PRODUCTION,RIFT,8447,JURASSIC,SANDSTONE,427.0,279.0,18.0,800.0
SCAPA,VALHALL (SCAPA SANDSTONE),UK,EUROPE,NORTH SEA CENTRAL,EXTENSION/EROSION,58.427,0.325,TALISMAN,OFFSHORE,OIL,NEARLY DEPLETED,RIFT,7523,CRETACEOUS,THINLY-BEDDED SANDSTONE,400.0,98.0,20.0,250.0
TOLON,NEDZHELIN-TAGANDZHIN-MONOM,RUSSIA,FORMER SOVIET UNION,SIBERIAN EASTERN,TRANSPRESSION/UPLIFT,63.75,124.0,YAKUTGASPROM,ONSHORE,GAS,UNDEVELOPED,PASSIVE MARGIN,8200,TRIASSIC,SANDSTONE,1640.0,123.0,17.0,28.0
NINIAN,BRENT,UK,EUROPE,NORTH SEA NORTHERN,EXTENSION/EROSION,60.8333,1.4333,CNR,OFFSHORE,OIL,MATURE PRODUCTION,RIFT,8480,JURASSIC,SANDSTONE,300.0,200.0,20.0,500.0
COUNTESS,UPPER MANNVILLE (YY POOL),CANADA,NORTH AMERICA,WESTERN CANADA,COMPRESSION/EROSION,50.6174,-112.2057,ENCANA,ONSHORE,OIL,DECLINING PRODUCTION,FORELAND,3347,CRETACEOUS,SANDSTONE,62.5,18.0,26.0,2500.0
HATTERS POND,NORPHLET,USA,NORTH AMERICA,GULF OF MEXICO NORTHERN ONSHORE,GRAVITY/EXTENSION/EVAPORITE/DIAPIR/SYNSEDIMENTATION,30.8976,-88.066,CHEVRON,ONSHORE,GAS-CONDENSATE,DECLINING PRODUCTION,SALT/PASSIVE MARGIN,18050,JURASSIC,SANDSTONE,350.0,200.0,10.4,0.5
NORTHEAST CEDARDALE,HUNTON (HARAGAN),USA,NORTH AMERICA,ANADARKO,COMPRESSION/EROSION,36.4227,-98.9165,LOUIS DREYFUS NATURAL GAS,ONSHORE,GAS,MATURE PRODUCTION,FORELAND,8275,DEVONIAN,DOLOMITE,250.0,38.0,16.0,20.0
FLOUNDER,LATROBE (T1.1 UNIT),AUSTRALIA,FAR EAST,GIPPSLAND,INVERSION/COMPRESSION/EXTENSION/EROSION,-38.33,148.417,EXXONMOBIL /BHP BILLITON,OFFSHORE,OIL,DECLINING PRODUCTION,INVERSION/RIFT,7677,CRETACEOUS,SANDSTONE,138.0,125.0,20.0,1200.0
HAWK POINT,UPPER MINNELUSA (B SAND),USA,NORTH AMERICA,POWDER RIVER,COMPRESSION,44.0263,-105.5474,NIELSON and ASSOCIATES INC,ONSHORE,OIL,NEARLY DEPLETED,FORELAND,11290,PERMIAN,SANDSTONE,140.0,30.0,13.0,30.0
CABIN CREEK,RED RIVER,USA,NORTH AMERICA,WILLISTON,COMPRESSION,46.5782,-104.4303,SHELL,ONSHORE,OIL,NEARLY DEPLETED,INTRACRATONIC,8750,ORDOVICIAN,DOLOMITE,500.0,40.0,13.0,8.0
KELAMAYI,KELAMAYI,CHINA,FAR EAST,JUNGGAR (ZHUNGEER),COMPRESSION/EROSION,45.5417,84.8917,PETROCHINA,ONSHORE,OIL,DECLINING PRODUCTION,THRUST,6100,TRIASSIC,CONGLOMERATE,750.0,43.0,18.0,279.0
MILK RIVER GAS POOL,MILK RIVER,CANADA,NORTH AMERICA,WILLISTON,COMPRESSION,50.0688,-111.1423,NUMEROUS,ONSHORE,GAS,UNKNOWN,INTRACRATONIC,984,CRETACEOUS,SILTSTONE,250.0,20.0,14.0,1.0
BRAGE,FENSFJORD,NORWAY,EUROPE,NORTH SEA NORTHERN,EXTENSION/EROSION,60.5868,3.0943,STATOILHYDRO,OFFSHORE,OIL,DECLINING PRODUCTION,RIFT,6348,JURASSIC,SANDSTONE,123.0,82.0,27.0,80.0
KATY,YEGUA,USA,NORTH AMERICA,GULF OF MEXICO NORTHERN ONSHORE,GRAVITY/EXTENSION/EVAPORITE,29.8443,-95.8638,EXXONMOBIL AND OTHERS,ONSHORE,GAS-CONDENSATE,NEARLY DEPLETED,DELTA/SALT/PASSIVE MARGIN,6270,PALEOGENE,SANDSTONE,1350.0,335.0,28.0,275.0
ZAKUM,THAMAMA ZONE IV,UAE,MIDDLE EAST,RUB AL KHALI,GRAVITY/EVAPORITE/COMPRESSION,24.8667,53.6833,ADMA /ZADCO,OFFSHORE,OIL,PLATEAU PRODUCTION,SALT/FORELAND,7850,CRETACEOUS,LIMESTONE,147.0,90.0,25.0,60.0
TALIN,TYUMEN (JUK10-JUK11),RUSSIA,FORMER SOVIET UNION,SIBERIAN WESTERN,COMPRESSION,62.0,66.55,TNK-BP,ONSHORE,OIL,DECLINING PRODUCTION,INTRACRATONIC,8399,JURASSIC,SANDSTONE,110.0,66.0,15.0,160.0
CHAUNOY,CHAUNOY,FRANCE,EUROPE,PARIS,EXTENSION,48.5687,2.8034,ESSOREP,ONSHORE,OIL,NEARLY DEPLETED,INTRACRATONIC,7356,TRIASSIC,SANDSTONE,217.0,82.0,13.0,130.0
CYMRIC,TULARE,USA,NORTH AMERICA,SAN JOAQUIN,COMPRESSION/STRIKE-SLIP/TRANSPRESSION/BASEMENT-I,35.3826,-119.708,CHEVRON /PXP,ONSHORE,OIL,DECLINING PRODUCTION,WRENCH,1000,NEOGENE,SANDSTONE,600.0,200.0,35.0,3000.0
YANLING,WUMISHAN,CHINA,FAR EAST,BOHAI,EXTENSION,38.7349,115.9453,PETROCHINA,ONSHORE,OIL,NEARLY DEPLETED,RIFT,9327,PROTEROZOIC,DOLOMITE,1306.0,177.0,1.3,1.2
JUMPING POUND WEST,TURNER VALLEY,CANADA,NORTH AMERICA,WESTERN CANADA,COMPRESSION/SHALE,51.1952,-114.8046,SHELL /ENCANA,ONSHORE,GAS,DECLINING PRODUCTION,SUB-THRUST/FORELAND,9870,CARBONIFEROUS,DOLOMITE,800.0,118.0,6.3,3.15
BU HASA,SHUAIBA,UAE,MIDDLE EAST,RUB AL KHALI,COMPRESSION/EVAPORITE/EXTENSION/LINKED,23.531,53.2953,ADCO,ONSHORE,OIL,SECOND PLATEAU PRODUTION,SALT/FORELAND,7650,CRETACEOUS,LIMESTONE,420.0,290.0,23.0,20.0
SAMARANG,STAGES IVC-IVF,MALAYSIA,FAR EAST,SABAH,GRAVITY/SHALE/EXTENSION/SYNSEDIMENTATION,5.6284,114.8906,PETRONAS,OFFSHORE,OIL,DECLINING PRODUCTION,DELTA/FORELAND,1180,NEOGENE,SANDSTONE,6739.0,500.0,23.0,250.0
MARLIM,CARAPEBUS,BRAZIL,LATIN AMERICA,CAMPOS,GRAVITY/EXTENSION/EVAPORITE,-22.4348,-40.0666,PETROBRAS,OFFSHORE,OIL,PLATEAU PRODUCTION,SALT/PASSIVE MARGIN,5543,PALEOGENE-NEOGENE,SANDSTONE,150.0,150.0,28.5,2000.0
ZAOYUAN,UNNAMED (FENGHUADIAN BLOCK),CHINA,FAR EAST,BOHAI,EXTENSION,38.21,117.06,PETROCHINA,ONSHORE,OIL,MATURE PRODUCTION,RIFT,9843,MESOZOIC,VOLCANICS,492.0,194.0,12.7,3.59
WHITE ROSE,AVALON (SOUTH POOL),CANADA,NORTH AMERICA,JEANNE D ARC,EXTENSION/EVAPORITE/EROSION/GRAVITY,46.8638,-48.0664,HUSKY ENERGY,OFFSHORE,OIL,DEVELOPING,RIFT/SALT,8842,CRETACEOUS,SANDSTONE,984.0,328.0,15.0,127.0
BERRI,HANIFA,SAUDI ARABIA,MIDDLE EAST,THE GULF,COMPRESSION/EVAPORITE,26.9833,49.6167,SAUDI ARAMCO,OFFSHORE,OIL,DECLINING PRODUCTION,FORELAND,7500,JURASSIC,LIMESTONE,270.0,190.0,17.0,50.0
RAMADAN,NUBIA C,EGYPT,AFRICA,GULF OF SUEZ,EXTENSION/EVAPORITE/INVERSION,28.2919,33.3144,GUPCO,OFFSHORE,OIL,MATURE PRODUCTION,SUB-SALT/RIFT,10700,PALEOZOIC,SANDSTONE,1300.0,750.0,15.0,100.0
BARONIA,RR2/RS2,MALAYSIA,FAR EAST,SABAH,GRAVITY/SHALE/EXTENSION/SYNSEDIMENTATION,4.705,113.694,PETRONAS,OFFSHORE,OIL,DECLINING PRODUCTION,DELTA/WRENCH,6615,NEOGENE,SANDSTONE,375.0,175.0,20.0,185.0
STATFJORD,BRENT,NORWAY /UK,EUROPE,NORTH SEA NORTHERN,EXTENSION/EROSION,61.2042,1.8287,STATOILHYDRO,OFFSHORE,OIL,DECLINING PRODUCTION,RIFT,7267,JURASSIC,SANDSTONE,700.0,490.0,27.0,2500.0
MABEE,SAN ANDRES,USA,NORTH AMERICA,PERMIAN,COMPRESSION,32.226,-102.23,CHEVRON,ONSHORE,OIL,MATURE PRODUCTION,FORELAND,4680,PERMIAN,DOLOMITE,400.0,50.0,10.5,8.0
BADRI,BELAYIM,EGYPT,AFRICA,GULF OF SUEZ,EXTENSION/EVAPORITE,28.2349,33.4649,GUPCO,OFFSHORE,OIL,PLATEAU PRODUCTION,SUB-SALT/RIFT,5025,NEOGENE,SANDSTONE,285.0,117.0,24.0,300.0
BUNYU,TARAKAN-SANTUL-TABUL-BUNYU,INDONESIA,FAR EAST,TARAKAN,INVERSION/COMPRESSION/EXTENSION/SHALE,3.4708,117.8625,PERTAMINA,ONSHORE,GAS,NEARLY DEPLETED,INVERSION/BACKARC,1115,NEOGENE,THINLY-BEDDED SANDSTONE,8200.0,390.0,25.0,1000.0
YAKIN,BALIKPAPAN (YAKIN),,,,INVERSION/COMPRESSION/EXTENSION/SHALE,,,CHEVRON,OFFSHORE,OIL,DECLINING PRODUCTION,INVERSION/BACKARC,490,NEOGENE,SANDSTONE,4800.0,400.0,25.0,500.0
ODOPTU-MORE,LOWER NUTOVO (XII-XX IV),RUSSIA,FORMER SOVIET UNION,NORTH SAKHALIN,STRIKE-SLIP/TRANSPRESSION/BASEMENT-I,53.1333,143.4667,EXXONMOBIL /SMNG,OFFSHORE,OIL,DEVELOPING,INVERSION/WRENCH,3520,NEOGENE,SANDSTONE,2460.0,220.0,20.0,45.0
EL DORADO,ADMIRE 650 SAND,USA,NORTH AMERICA,CHEROKEE,INVERSION/COMPRESSION/EXTENSION/EROSION,37.8526,-97.8984,OCCIDENTAL,ONSHORE,OIL,ABANDONED,FORELAND,500,PERMIAN,SANDSTONE,40.0,18.0,28.0,240.0
WESTHOPE SOUTH,SPEARFISH,USA,NORTH AMERICA,WILLISTON,COMPRESSION,48.8521,-101.013,AMERADA HESS,ONSHORE,OIL,MATURE PRODUCTION,INTRACRATONIC,3275,TRIASSIC,SANDSTONE,43.0,15.5,14.0,13.5
EMMA,SAN ANDRES,USA,NORTH AMERICA,PERMIAN,COMPRESSION,32.126999999999995,-102.6353,EXXONMOBIL,ONSHORE,OIL,NEARLY DEPLETED,FORELAND,4185,PERMIAN,DOLOMITE,350.0,40.0,8.0,3.0
HIDES,IMBURU-TORO,PAPUA NEW GUINEA,FAR EAST,PAPUAN FTB,COMPRESSION,-6.0136,142.8409,OIL SEARCH LTD,ONSHORE,GAS-CONDENSATE,CONTINUING DEVELOPMENT,THRUST,9905,JURASSIC-CRETACEOUS,SANDSTONE,490.0,240.0,10.0,100.0
DRAKE POINT,DRAKE POINT-INTREPID INLET,CANADA,NORTH AMERICA,SVERDRUP,COMPRESSION/EVAPORITE/EXTENSION/LINKED,76.4462,-108.9172,PANARCTIC OILS,ONSHORE,GAS,UNDEVELOPED,FORELAND,3390,JURASSIC,SANDSTONE,100.0,71.0,20.0,566.0
ALTAMONT-BLUEBELL,GREEN RIVER AND COLTON/WASATCH,USA,NORTH AMERICA,UINTA,COMPRESSION,40.3,-110.21,NUMEROUS,ONSHORE,OIL,MATURE PRODUCTION,FORELAND,15250,PALEOGENE,SANDSTONE,8000.0,575.0,5.0,0.1
BELL CREEK,MUDDY,USA,NORTH AMERICA,POWDER RIVER,COMPRESSION,45.1039,-105.0967,SAMUEL GARY,ONSHORE,OIL,NEARLY DEPLETED,FORELAND,4300,CRETACEOUS,SANDSTONE,45.0,23.0,28.5,2250.0
WELL DRAW,MESAVERDE (TEAPOT SAND),USA,NORTH AMERICA,POWDER RIVER,COMPRESSION,43.006,-105.1392,MATRIX PRODUCTION AND OTHERS,ONSHORE,OIL,MATURE PRODUCTION,FORELAND,6367,CRETACEOUS,SANDSTONE,110.0,17.0,14.0,4.3
